{
  "type": "FeatureCollection",
  "name": "Idukki",
  "crs": {
    "type": "name",
    "properties": {
      "name": "urn:ogc:def:crs:OGC:1.3:CRS84"
    }
  },
  "features": [
    {
      "type": "Feature",
      "properties": {
        "name": "Idukki",
        "source": "simplified prototype outline (replace with official district boundary)",
        "note": "Simplified coarse boundary for region-switch proof."
      },
      "geometry": {
        "type": "Polygon",
        "coordinates": [
          [
            [
              76.55,
              10.15
            ],
            [
              77.05,
              10.25
            ],
            [
              77.3,
              10.0
            ],
            [
              77.35,
              9.65
            ],
            [
              77.25,
              9.35
            ],
            [
              77.05,
              9.15
            ],
            [
              76.75,
              9.2
            ],
            [
              76.6,
              9.5
            ],
            [
              76.5,
              9.8
            ],
            [
              76.55,
              10.15
            ]
          ]
        ]
      }
    }
  ]
}