{
"type": "FeatureCollection",
"name": "historical_landslides",
"crs": { "type": "name", "properties": { "name": "urn:ogc:def:crs:OGC:1.3:CRS84" } },
"features": [
{ "type": "Feature", "properties": { "date": "2018-08-09T00:00:00", "source": "SYNTHETIC (stand-in for GSI inventory)" }, "geometry": { "type": "Point", "coordinates": [ 77.169746980598561, 9.977044099132087 ] } },
{ "type": "Feature", "properties": { "date": "2018-08-09T00:00:00", "source": "SYNTHETIC (stand-in for GSI inventory)" }, "geometry": { "type": "Point", "coordinates": [ 77.100634228577988, 9.991316080392018 ] } },
{ "type": "Feature", "properties": { "date": "2018-08-09T00:00:00", "source": "SYNTHETIC (stand-in for GSI inventory)" }, "geometry": { "type": "Point", "coordinates": [ 77.302538520356592, 9.800189226986497 ] } },
{ "type": "Feature", "properties": { "date": "2018-08-09T00:00:00", "source": "SYNTHETIC (stand-in for GSI inventory)" }, "geometry": { "type": "Point", "coordinates": [ 76.646590670548463, 9.512700239156166 ] } },
{ "type": "Feature", "properties": { "date": "2018-08-09T00:00:00", "source": "SYNTHETIC (stand-in for GSI inventory)" }, "geometry": { "type": "Point", "coordinates": [ 77.292531026860104, 9.934197003641437 ] } },
{ "type": "Feature", "properties": { "date": "2018-08-09T00:00:00", "source": "SYNTHETIC (stand-in for GSI inventory)" }, "geometry": { "type": "Point", "coordinates": [ 77.191202248952862, 10.035743227389956 ] } },
{ "type": "Feature", "properties": { "date": "2018-08-09T00:00:00", "source": "SYNTHETIC (stand-in for GSI inventory)" }, "geometry": { "type": "Point", "coordinates": [ 76.866547279554922, 9.959081557769062 ] } },
{ "type": "Feature", "properties": { "date": "2018-08-09T00:00:00", "source": "SYNTHETIC (stand-in for GSI inventory)" }, "geometry": { "type": "Point", "coordinates": [ 77.107914345174279, 9.846468141089009 ] } },
{ "type": "Feature", "properties": { "date": "2018-08-09T00:00:00", "source": "SYNTHETIC (stand-in for GSI inventory)" }, "geometry": { "type": "Point", "coordinates": [ 76.861241935399235, 9.495078190174372 ] } },
{ "type": "Feature", "properties": { "date": "2018-08-09T00:00:00", "source": "SYNTHETIC (stand-in for GSI inventory)" }, "geometry": { "type": "Point", "coordinates": [ 77.092711982505648, 9.950148663015488 ] } },
{ "type": "Feature", "properties": { "date": "2018-08-09T00:00:00", "source": "SYNTHETIC (stand-in for GSI inventory)" }, "geometry": { "type": "Point", "coordinates": [ 77.135271208717441, 9.677090995777007 ] } },
{ "type": "Feature", "properties": { "date": "2018-08-09T00:00:00", "source": "SYNTHETIC (stand-in for GSI inventory)" }, "geometry": { "type": "Point", "coordinates": [ 77.309723953938359, 9.771942690253018 ] } },
{ "type": "Feature", "properties": { "date": "2018-08-09T00:00:00", "source": "SYNTHETIC (stand-in for GSI inventory)" }, "geometry": { "type": "Point", "coordinates": [ 77.204110111297126, 9.839075237865169 ] } },
{ "type": "Feature", "properties": { "date": "2018-08-09T00:00:00", "source": "SYNTHETIC (stand-in for GSI inventory)" }, "geometry": { "type": "Point", "coordinates": [ 77.177986988098027, 9.475894946385802 ] } },
{ "type": "Feature", "properties": { "date": "2018-08-09T00:00:00", "source": "SYNTHETIC (stand-in for GSI inventory)" }, "geometry": { "type": "Point", "coordinates": [ 77.201896070244345, 9.369994869198262 ] } },
{ "type": "Feature", "properties": { "date": "2018-08-09T00:00:00", "source": "SYNTHETIC (stand-in for GSI inventory)" }, "geometry": { "type": "Point", "coordinates": [ 76.727599008876879, 9.264133957692776 ] } },
{ "type": "Feature", "properties": { "date": "2018-08-09T00:00:00", "source": "SYNTHETIC (stand-in for GSI inventory)" }, "geometry": { "type": "Point", "coordinates": [ 77.164793352593833, 9.930980001466995 ] } },
{ "type": "Feature", "properties": { "date": "2018-08-09T00:00:00", "source": "SYNTHETIC (stand-in for GSI inventory)" }, "geometry": { "type": "Point", "coordinates": [ 77.045900130162664, 9.721565947748783 ] } },
{ "type": "Feature", "properties": { "date": "2018-08-09T00:00:00", "source": "SYNTHETIC (stand-in for GSI inventory)" }, "geometry": { "type": "Point", "coordinates": [ 77.118281362353812, 10.012897232329822 ] } },
{ "type": "Feature", "properties": { "date": "2018-08-09T00:00:00", "source": "SYNTHETIC (stand-in for GSI inventory)" }, "geometry": { "type": "Point", "coordinates": [ 77.203432358579818, 9.736313675499387 ] } },
{ "type": "Feature", "properties": { "date": "2018-08-09T00:00:00", "source": "SYNTHETIC (stand-in for GSI inventory)" }, "geometry": { "type": "Point", "coordinates": [ 77.09515770048904, 9.861461751324548 ] } },
{ "type": "Feature", "properties": { "date": "2018-08-09T00:00:00", "source": "SYNTHETIC (stand-in for GSI inventory)" }, "geometry": { "type": "Point", "coordinates": [ 76.622412296091994, 9.993718337260216 ] } },
{ "type": "Feature", "properties": { "date": "2018-08-09T00:00:00", "source": "SYNTHETIC (stand-in for GSI inventory)" }, "geometry": { "type": "Point", "coordinates": [ 77.249595248209829, 9.894088307133494 ] } },
{ "type": "Feature", "properties": { "date": "2018-08-09T00:00:00", "source": "SYNTHETIC (stand-in for GSI inventory)" }, "geometry": { "type": "Point", "coordinates": [ 77.216447610944186, 9.885089544626362 ] } },
{ "type": "Feature", "properties": { "date": "2018-08-09T00:00:00", "source": "SYNTHETIC (stand-in for GSI inventory)" }, "geometry": { "type": "Point", "coordinates": [ 77.219871115318298, 9.824601281811843 ] } },
{ "type": "Feature", "properties": { "date": "2018-08-09T00:00:00", "source": "SYNTHETIC (stand-in for GSI inventory)" }, "geometry": { "type": "Point", "coordinates": [ 77.305975721508261, 9.862255023742719 ] } },
{ "type": "Feature", "properties": { "date": "2018-08-09T00:00:00", "source": "SYNTHETIC (stand-in for GSI inventory)" }, "geometry": { "type": "Point", "coordinates": [ 77.023764571327263, 9.947047833977727 ] } },
{ "type": "Feature", "properties": { "date": "2018-08-09T00:00:00", "source": "SYNTHETIC (stand-in for GSI inventory)" }, "geometry": { "type": "Point", "coordinates": [ 77.257258010816969, 9.774192913565972 ] } },
{ "type": "Feature", "properties": { "date": "2018-08-09T00:00:00", "source": "SYNTHETIC (stand-in for GSI inventory)" }, "geometry": { "type": "Point", "coordinates": [ 77.116429433477322, 9.980369571082457 ] } },
{ "type": "Feature", "properties": { "date": "2018-08-09T00:00:00", "source": "SYNTHETIC (stand-in for GSI inventory)" }, "geometry": { "type": "Point", "coordinates": [ 76.949015128491538, 9.31479641706848 ] } },
{ "type": "Feature", "properties": { "date": "2018-08-09T00:00:00", "source": "SYNTHETIC (stand-in for GSI inventory)" }, "geometry": { "type": "Point", "coordinates": [ 76.902576423085463, 9.360881106485987 ] } },
{ "type": "Feature", "properties": { "date": "2018-08-09T00:00:00", "source": "SYNTHETIC (stand-in for GSI inventory)" }, "geometry": { "type": "Point", "coordinates": [ 77.111669477517083, 9.258550187047831 ] } },
{ "type": "Feature", "properties": { "date": "2018-08-09T00:00:00", "source": "SYNTHETIC (stand-in for GSI inventory)" }, "geometry": { "type": "Point", "coordinates": [ 77.280494036340812, 9.530826556863309 ] } },
{ "type": "Feature", "properties": { "date": "2018-08-09T00:00:00", "source": "SYNTHETIC (stand-in for GSI inventory)" }, "geometry": { "type": "Point", "coordinates": [ 77.277616744190766, 9.873293251343238 ] } },
{ "type": "Feature", "properties": { "date": "2018-08-09T00:00:00", "source": "SYNTHETIC (stand-in for GSI inventory)" }, "geometry": { "type": "Point", "coordinates": [ 77.207960581097609, 9.759874473946383 ] } },
{ "type": "Feature", "properties": { "date": "2018-08-09T00:00:00", "source": "SYNTHETIC (stand-in for GSI inventory)" }, "geometry": { "type": "Point", "coordinates": [ 77.249675099318182, 9.985733165334922 ] } },
{ "type": "Feature", "properties": { "date": "2018-08-09T00:00:00", "source": "SYNTHETIC (stand-in for GSI inventory)" }, "geometry": { "type": "Point", "coordinates": [ 77.124490572370846, 10.125660078373524 ] } },
{ "type": "Feature", "properties": { "date": "2018-08-09T00:00:00", "source": "SYNTHETIC (stand-in for GSI inventory)" }, "geometry": { "type": "Point", "coordinates": [ 77.061907094665102, 9.922951708939312 ] } },
{ "type": "Feature", "properties": { "date": "2018-08-09T00:00:00", "source": "SYNTHETIC (stand-in for GSI inventory)" }, "geometry": { "type": "Point", "coordinates": [ 76.833005234617346, 10.171891948415803 ] } },
{ "type": "Feature", "properties": { "date": "2018-08-09T00:00:00", "source": "SYNTHETIC (stand-in for GSI inventory)" }, "geometry": { "type": "Point", "coordinates": [ 77.208424188120063, 9.705641422000145 ] } },
{ "type": "Feature", "properties": { "date": "2018-08-09T00:00:00", "source": "SYNTHETIC (stand-in for GSI inventory)" }, "geometry": { "type": "Point", "coordinates": [ 77.13343505882716, 10.029340988385396 ] } },
{ "type": "Feature", "properties": { "date": "2018-08-09T00:00:00", "source": "SYNTHETIC (stand-in for GSI inventory)" }, "geometry": { "type": "Point", "coordinates": [ 77.189761682204505, 10.065579143608593 ] } },
{ "type": "Feature", "properties": { "date": "2018-08-09T00:00:00", "source": "SYNTHETIC (stand-in for GSI inventory)" }, "geometry": { "type": "Point", "coordinates": [ 76.931133947012214, 9.389473932450207 ] } },
{ "type": "Feature", "properties": { "date": "2018-08-09T00:00:00", "source": "SYNTHETIC (stand-in for GSI inventory)" }, "geometry": { "type": "Point", "coordinates": [ 77.024746040062652, 10.105137849829873 ] } },
{ "type": "Feature", "properties": { "date": "2018-08-09T00:00:00", "source": "SYNTHETIC (stand-in for GSI inventory)" }, "geometry": { "type": "Point", "coordinates": [ 76.928855173200901, 9.470846306344047 ] } },
{ "type": "Feature", "properties": { "date": "2018-08-09T00:00:00", "source": "SYNTHETIC (stand-in for GSI inventory)" }, "geometry": { "type": "Point", "coordinates": [ 77.2848960152904, 9.858331520571877 ] } },
{ "type": "Feature", "properties": { "date": "2018-08-09T00:00:00", "source": "SYNTHETIC (stand-in for GSI inventory)" }, "geometry": { "type": "Point", "coordinates": [ 77.177086903718632, 9.970217448289148 ] } },
{ "type": "Feature", "properties": { "date": "2018-08-09T00:00:00", "source": "SYNTHETIC (stand-in for GSI inventory)" }, "geometry": { "type": "Point", "coordinates": [ 77.16681181310075, 9.863449324107002 ] } },
{ "type": "Feature", "properties": { "date": "2018-08-09T00:00:00", "source": "SYNTHETIC (stand-in for GSI inventory)" }, "geometry": { "type": "Point", "coordinates": [ 77.038989287841986, 9.843366051492369 ] } },
{ "type": "Feature", "properties": { "date": "2018-08-09T00:00:00", "source": "SYNTHETIC (stand-in for GSI inventory)" }, "geometry": { "type": "Point", "coordinates": [ 77.174933126175304, 9.809166112370477 ] } },
{ "type": "Feature", "properties": { "date": "2018-08-09T00:00:00", "source": "SYNTHETIC (stand-in for GSI inventory)" }, "geometry": { "type": "Point", "coordinates": [ 76.977509102718614, 9.712205616651028 ] } },
{ "type": "Feature", "properties": { "date": "2018-08-09T00:00:00", "source": "SYNTHETIC (stand-in for GSI inventory)" }, "geometry": { "type": "Point", "coordinates": [ 77.219844109378485, 9.861477417548077 ] } },
{ "type": "Feature", "properties": { "date": "2018-08-09T00:00:00", "source": "SYNTHETIC (stand-in for GSI inventory)" }, "geometry": { "type": "Point", "coordinates": [ 77.172401075404423, 9.840094041121574 ] } },
{ "type": "Feature", "properties": { "date": "2018-08-09T00:00:00", "source": "SYNTHETIC (stand-in for GSI inventory)" }, "geometry": { "type": "Point", "coordinates": [ 77.237527676616068, 9.969275320892915 ] } },
{ "type": "Feature", "properties": { "date": "2018-08-09T00:00:00", "source": "SYNTHETIC (stand-in for GSI inventory)" }, "geometry": { "type": "Point", "coordinates": [ 77.265824211107173, 9.706893212138855 ] } },
{ "type": "Feature", "properties": { "date": "2018-08-09T00:00:00", "source": "SYNTHETIC (stand-in for GSI inventory)" }, "geometry": { "type": "Point", "coordinates": [ 77.102708440814652, 9.801486900455687 ] } },
{ "type": "Feature", "properties": { "date": "2018-08-09T00:00:00", "source": "SYNTHETIC (stand-in for GSI inventory)" }, "geometry": { "type": "Point", "coordinates": [ 77.072154517576791, 9.176070988556203 ] } },
{ "type": "Feature", "properties": { "date": "2018-08-09T00:00:00", "source": "SYNTHETIC (stand-in for GSI inventory)" }, "geometry": { "type": "Point", "coordinates": [ 77.286643143201886, 9.952674354364701 ] } },
{ "type": "Feature", "properties": { "date": "2018-08-09T00:00:00", "source": "SYNTHETIC (stand-in for GSI inventory)" }, "geometry": { "type": "Point", "coordinates": [ 77.318398885776716, 9.761580721161575 ] } },
{ "type": "Feature", "properties": { "date": "2018-08-09T00:00:00", "source": "SYNTHETIC (stand-in for GSI inventory)" }, "geometry": { "type": "Point", "coordinates": [ 77.282283206758549, 9.716002551782646 ] } },
{ "type": "Feature", "properties": { "date": "2018-08-09T00:00:00", "source": "SYNTHETIC (stand-in for GSI inventory)" }, "geometry": { "type": "Point", "coordinates": [ 77.17700956415068, 10.040717443846077 ] } },
{ "type": "Feature", "properties": { "date": "2018-08-09T00:00:00", "source": "SYNTHETIC (stand-in for GSI inventory)" }, "geometry": { "type": "Point", "coordinates": [ 77.127233373309252, 9.959150260801303 ] } },
{ "type": "Feature", "properties": { "date": "2018-08-09T00:00:00", "source": "SYNTHETIC (stand-in for GSI inventory)" }, "geometry": { "type": "Point", "coordinates": [ 77.113226501136808, 10.118953653185478 ] } },
{ "type": "Feature", "properties": { "date": "2018-08-09T00:00:00", "source": "SYNTHETIC (stand-in for GSI inventory)" }, "geometry": { "type": "Point", "coordinates": [ 77.102464597084264, 9.762711464513933 ] } },
{ "type": "Feature", "properties": { "date": "2018-08-09T00:00:00", "source": "SYNTHETIC (stand-in for GSI inventory)" }, "geometry": { "type": "Point", "coordinates": [ 77.188440752546484, 9.867648043318408 ] } },
{ "type": "Feature", "properties": { "date": "2018-08-09T00:00:00", "source": "SYNTHETIC (stand-in for GSI inventory)" }, "geometry": { "type": "Point", "coordinates": [ 77.200497212898355, 9.994196066074453 ] } },
{ "type": "Feature", "properties": { "date": "2018-08-09T00:00:00", "source": "SYNTHETIC (stand-in for GSI inventory)" }, "geometry": { "type": "Point", "coordinates": [ 77.111418563993482, 9.966843181757493 ] } },
{ "type": "Feature", "properties": { "date": "2018-08-09T00:00:00", "source": "SYNTHETIC (stand-in for GSI inventory)" }, "geometry": { "type": "Point", "coordinates": [ 77.075624314683211, 9.929646295883261 ] } },
{ "type": "Feature", "properties": { "date": "2018-08-09T00:00:00", "source": "SYNTHETIC (stand-in for GSI inventory)" }, "geometry": { "type": "Point", "coordinates": [ 77.308876031111296, 9.886094661766791 ] } },
{ "type": "Feature", "properties": { "date": "2018-08-09T00:00:00", "source": "SYNTHETIC (stand-in for GSI inventory)" }, "geometry": { "type": "Point", "coordinates": [ 77.088977995667975, 10.177680068778487 ] } },
{ "type": "Feature", "properties": { "date": "2018-08-09T00:00:00", "source": "SYNTHETIC (stand-in for GSI inventory)" }, "geometry": { "type": "Point", "coordinates": [ 77.315462667712609, 9.889574063804028 ] } },
{ "type": "Feature", "properties": { "date": "2018-08-09T00:00:00", "source": "SYNTHETIC (stand-in for GSI inventory)" }, "geometry": { "type": "Point", "coordinates": [ 77.148654010785165, 9.972299859814315 ] } },
{ "type": "Feature", "properties": { "date": "2018-08-09T00:00:00", "source": "SYNTHETIC (stand-in for GSI inventory)" }, "geometry": { "type": "Point", "coordinates": [ 77.136473724527875, 9.865541078332051 ] } },
{ "type": "Feature", "properties": { "date": "2018-08-09T00:00:00", "source": "SYNTHETIC (stand-in for GSI inventory)" }, "geometry": { "type": "Point", "coordinates": [ 77.268577855745662, 9.463389799596623 ] } },
{ "type": "Feature", "properties": { "date": "2018-08-09T00:00:00", "source": "SYNTHETIC (stand-in for GSI inventory)" }, "geometry": { "type": "Point", "coordinates": [ 77.174962929512617, 9.855533362026708 ] } },
{ "type": "Feature", "properties": { "date": "2018-08-09T00:00:00", "source": "SYNTHETIC (stand-in for GSI inventory)" }, "geometry": { "type": "Point", "coordinates": [ 77.31405763879836, 9.884161147480164 ] } },
{ "type": "Feature", "properties": { "date": "2018-08-09T00:00:00", "source": "SYNTHETIC (stand-in for GSI inventory)" }, "geometry": { "type": "Point", "coordinates": [ 77.315024036582372, 9.787361107466761 ] } },
{ "type": "Feature", "properties": { "date": "2018-08-09T00:00:00", "source": "SYNTHETIC (stand-in for GSI inventory)" }, "geometry": { "type": "Point", "coordinates": [ 77.26638810871232, 9.910514896315318 ] } },
{ "type": "Feature", "properties": { "date": "2018-08-09T00:00:00", "source": "SYNTHETIC (stand-in for GSI inventory)" }, "geometry": { "type": "Point", "coordinates": [ 77.018368654756117, 9.503969344772537 ] } },
{ "type": "Feature", "properties": { "date": "2018-08-09T00:00:00", "source": "SYNTHETIC (stand-in for GSI inventory)" }, "geometry": { "type": "Point", "coordinates": [ 77.319221953025533, 9.801431212374526 ] } },
{ "type": "Feature", "properties": { "date": "2018-08-09T00:00:00", "source": "SYNTHETIC (stand-in for GSI inventory)" }, "geometry": { "type": "Point", "coordinates": [ 77.18098358752556, 9.730763594653826 ] } },
{ "type": "Feature", "properties": { "date": "2018-08-09T00:00:00", "source": "SYNTHETIC (stand-in for GSI inventory)" }, "geometry": { "type": "Point", "coordinates": [ 76.753694190534745, 9.240952783538988 ] } },
{ "type": "Feature", "properties": { "date": "2018-08-09T00:00:00", "source": "SYNTHETIC (stand-in for GSI inventory)" }, "geometry": { "type": "Point", "coordinates": [ 76.941511550547901, 9.631595785719309 ] } },
{ "type": "Feature", "properties": { "date": "2018-08-09T00:00:00", "source": "SYNTHETIC (stand-in for GSI inventory)" }, "geometry": { "type": "Point", "coordinates": [ 76.89958482439107, 10.182088930847979 ] } },
{ "type": "Feature", "properties": { "date": "2018-08-09T00:00:00", "source": "SYNTHETIC (stand-in for GSI inventory)" }, "geometry": { "type": "Point", "coordinates": [ 77.195269139962249, 10.030293358126359 ] } },
{ "type": "Feature", "properties": { "date": "2018-08-09T00:00:00", "source": "SYNTHETIC (stand-in for GSI inventory)" }, "geometry": { "type": "Point", "coordinates": [ 76.787071279063611, 9.521502123168741 ] } },
{ "type": "Feature", "properties": { "date": "2018-08-09T00:00:00", "source": "SYNTHETIC (stand-in for GSI inventory)" }, "geometry": { "type": "Point", "coordinates": [ 76.98472823434733, 9.208020218715465 ] } },
{ "type": "Feature", "properties": { "date": "2018-08-09T00:00:00", "source": "SYNTHETIC (stand-in for GSI inventory)" }, "geometry": { "type": "Point", "coordinates": [ 77.312016903156561, 9.86600947067863 ] } },
{ "type": "Feature", "properties": { "date": "2018-08-09T00:00:00", "source": "SYNTHETIC (stand-in for GSI inventory)" }, "geometry": { "type": "Point", "coordinates": [ 77.2259303703661, 9.95308424209265 ] } },
{ "type": "Feature", "properties": { "date": "2018-08-09T00:00:00", "source": "SYNTHETIC (stand-in for GSI inventory)" }, "geometry": { "type": "Point", "coordinates": [ 77.240824255769155, 9.931293370986433 ] } },
{ "type": "Feature", "properties": { "date": "2018-08-09T00:00:00", "source": "SYNTHETIC (stand-in for GSI inventory)" }, "geometry": { "type": "Point", "coordinates": [ 77.253252685750326, 10.028548896521331 ] } },
{ "type": "Feature", "properties": { "date": "2018-08-09T00:00:00", "source": "SYNTHETIC (stand-in for GSI inventory)" }, "geometry": { "type": "Point", "coordinates": [ 77.306728426678461, 9.891803142176407 ] } },
{ "type": "Feature", "properties": { "date": "2018-08-09T00:00:00", "source": "SYNTHETIC (stand-in for GSI inventory)" }, "geometry": { "type": "Point", "coordinates": [ 77.220676473038409, 10.025243659890087 ] } },
{ "type": "Feature", "properties": { "date": "2018-08-09T00:00:00", "source": "SYNTHETIC (stand-in for GSI inventory)" }, "geometry": { "type": "Point", "coordinates": [ 77.019990403605277, 9.454333126763082 ] } },
{ "type": "Feature", "properties": { "date": "2018-08-09T00:00:00", "source": "SYNTHETIC (stand-in for GSI inventory)" }, "geometry": { "type": "Point", "coordinates": [ 77.023847228461037, 9.644952834765029 ] } },
{ "type": "Feature", "properties": { "date": "2018-08-09T00:00:00", "source": "SYNTHETIC (stand-in for GSI inventory)" }, "geometry": { "type": "Point", "coordinates": [ 77.080529431292419, 9.347136233410589 ] } },
{ "type": "Feature", "properties": { "date": "2018-08-09T00:00:00", "source": "SYNTHETIC (stand-in for GSI inventory)" }, "geometry": { "type": "Point", "coordinates": [ 77.256471808890637, 9.900007282751623 ] } },
{ "type": "Feature", "properties": { "date": "2018-08-09T00:00:00", "source": "SYNTHETIC (stand-in for GSI inventory)" }, "geometry": { "type": "Point", "coordinates": [ 77.298250555131546, 9.969947136544997 ] } },
{ "type": "Feature", "properties": { "date": "2018-08-09T00:00:00", "source": "SYNTHETIC (stand-in for GSI inventory)" }, "geometry": { "type": "Point", "coordinates": [ 77.317386349889972, 9.851873873254027 ] } },
{ "type": "Feature", "properties": { "date": "2018-08-09T00:00:00", "source": "SYNTHETIC (stand-in for GSI inventory)" }, "geometry": { "type": "Point", "coordinates": [ 76.746260393228141, 9.974920244984654 ] } },
{ "type": "Feature", "properties": { "date": "2018-08-09T00:00:00", "source": "SYNTHETIC (stand-in for GSI inventory)" }, "geometry": { "type": "Point", "coordinates": [ 77.138606753356797, 10.149701482325128 ] } },
{ "type": "Feature", "properties": { "date": "2018-08-09T00:00:00", "source": "SYNTHETIC (stand-in for GSI inventory)" }, "geometry": { "type": "Point", "coordinates": [ 76.835768260329019, 9.430935323120984 ] } },
{ "type": "Feature", "properties": { "date": "2018-08-09T00:00:00", "source": "SYNTHETIC (stand-in for GSI inventory)" }, "geometry": { "type": "Point", "coordinates": [ 77.229437204203634, 9.864939006837528 ] } },
{ "type": "Feature", "properties": { "date": "2018-08-09T00:00:00", "source": "SYNTHETIC (stand-in for GSI inventory)" }, "geometry": { "type": "Point", "coordinates": [ 77.066657503918876, 9.448095669581811 ] } },
{ "type": "Feature", "properties": { "date": "2018-08-09T00:00:00", "source": "SYNTHETIC (stand-in for GSI inventory)" }, "geometry": { "type": "Point", "coordinates": [ 77.187131231262754, 9.32290468380131 ] } },
{ "type": "Feature", "properties": { "date": "2018-08-09T00:00:00", "source": "SYNTHETIC (stand-in for GSI inventory)" }, "geometry": { "type": "Point", "coordinates": [ 77.27215616767775, 9.794429072851136 ] } },
{ "type": "Feature", "properties": { "date": "2018-08-09T00:00:00", "source": "SYNTHETIC (stand-in for GSI inventory)" }, "geometry": { "type": "Point", "coordinates": [ 77.209301924275351, 9.630798098740408 ] } },
{ "type": "Feature", "properties": { "date": "2018-08-09T00:00:00", "source": "SYNTHETIC (stand-in for GSI inventory)" }, "geometry": { "type": "Point", "coordinates": [ 76.812411913705702, 9.351589633063721 ] } },
{ "type": "Feature", "properties": { "date": "2018-08-09T00:00:00", "source": "SYNTHETIC (stand-in for GSI inventory)" }, "geometry": { "type": "Point", "coordinates": [ 77.242590667395902, 9.78811827980117 ] } },
{ "type": "Feature", "properties": { "date": "2018-08-09T00:00:00", "source": "SYNTHETIC (stand-in for GSI inventory)" }, "geometry": { "type": "Point", "coordinates": [ 77.062857182971541, 9.497743602100146 ] } },
{ "type": "Feature", "properties": { "date": "2018-08-09T00:00:00", "source": "SYNTHETIC (stand-in for GSI inventory)" }, "geometry": { "type": "Point", "coordinates": [ 77.291003610408637, 9.950475429639761 ] } },
{ "type": "Feature", "properties": { "date": "2018-08-09T00:00:00", "source": "SYNTHETIC (stand-in for GSI inventory)" }, "geometry": { "type": "Point", "coordinates": [ 77.078682528032985, 10.023722853372224 ] } },
{ "type": "Feature", "properties": { "date": "2018-08-09T00:00:00", "source": "SYNTHETIC (stand-in for GSI inventory)" }, "geometry": { "type": "Point", "coordinates": [ 77.060814223228732, 9.612192501623751 ] } },
{ "type": "Feature", "properties": { "date": "2018-08-09T00:00:00", "source": "SYNTHETIC (stand-in for GSI inventory)" }, "geometry": { "type": "Point", "coordinates": [ 77.258228715289661, 9.83681993106215 ] } },
{ "type": "Feature", "properties": { "date": "2018-08-09T00:00:00", "source": "SYNTHETIC (stand-in for GSI inventory)" }, "geometry": { "type": "Point", "coordinates": [ 77.130624630015319, 10.059728873126934 ] } },
{ "type": "Feature", "properties": { "date": "2018-08-09T00:00:00", "source": "SYNTHETIC (stand-in for GSI inventory)" }, "geometry": { "type": "Point", "coordinates": [ 77.288204797765701, 9.74280546998475 ] } },
{ "type": "Feature", "properties": { "date": "2018-08-09T00:00:00", "source": "SYNTHETIC (stand-in for GSI inventory)" }, "geometry": { "type": "Point", "coordinates": [ 77.08095145670508, 10.079026751919749 ] } },
{ "type": "Feature", "properties": { "date": "2018-08-09T00:00:00", "source": "SYNTHETIC (stand-in for GSI inventory)" }, "geometry": { "type": "Point", "coordinates": [ 77.18277939451913, 9.369299722621417 ] } },
{ "type": "Feature", "properties": { "date": "2018-08-09T00:00:00", "source": "SYNTHETIC (stand-in for GSI inventory)" }, "geometry": { "type": "Point", "coordinates": [ 77.180005879083666, 9.915425635629198 ] } },
{ "type": "Feature", "properties": { "date": "2018-08-09T00:00:00", "source": "SYNTHETIC (stand-in for GSI inventory)" }, "geometry": { "type": "Point", "coordinates": [ 77.231746451812128, 9.341337163726203 ] } },
{ "type": "Feature", "properties": { "date": "2018-08-09T00:00:00", "source": "SYNTHETIC (stand-in for GSI inventory)" }, "geometry": { "type": "Point", "coordinates": [ 77.144502748331675, 9.922975782307404 ] } },
{ "type": "Feature", "properties": { "date": "2018-08-09T00:00:00", "source": "SYNTHETIC (stand-in for GSI inventory)" }, "geometry": { "type": "Point", "coordinates": [ 77.280707951925649, 9.480664165261031 ] } },
{ "type": "Feature", "properties": { "date": "2018-08-09T00:00:00", "source": "SYNTHETIC (stand-in for GSI inventory)" }, "geometry": { "type": "Point", "coordinates": [ 77.235678993944518, 9.776504624434708 ] } },
{ "type": "Feature", "properties": { "date": "2018-08-09T00:00:00", "source": "SYNTHETIC (stand-in for GSI inventory)" }, "geometry": { "type": "Point", "coordinates": [ 76.947319438371949, 9.832245715280182 ] } },
{ "type": "Feature", "properties": { "date": "2018-08-09T00:00:00", "source": "SYNTHETIC (stand-in for GSI inventory)" }, "geometry": { "type": "Point", "coordinates": [ 77.066607540768047, 9.88739928106498 ] } },
{ "type": "Feature", "properties": { "date": "2018-08-09T00:00:00", "source": "SYNTHETIC (stand-in for GSI inventory)" }, "geometry": { "type": "Point", "coordinates": [ 76.54693201700033, 10.002486111908429 ] } },
{ "type": "Feature", "properties": { "date": "2018-08-09T00:00:00", "source": "SYNTHETIC (stand-in for GSI inventory)" }, "geometry": { "type": "Point", "coordinates": [ 76.923006007149723, 9.45053842032871 ] } },
{ "type": "Feature", "properties": { "date": "2018-08-09T00:00:00", "source": "SYNTHETIC (stand-in for GSI inventory)" }, "geometry": { "type": "Point", "coordinates": [ 77.18052054171703, 9.910541544049581 ] } },
{ "type": "Feature", "properties": { "date": "2018-08-09T00:00:00", "source": "SYNTHETIC (stand-in for GSI inventory)" }, "geometry": { "type": "Point", "coordinates": [ 76.950115810230059, 9.935553077181019 ] } },
{ "type": "Feature", "properties": { "date": "2018-08-09T00:00:00", "source": "SYNTHETIC (stand-in for GSI inventory)" }, "geometry": { "type": "Point", "coordinates": [ 76.926806662812297, 9.544081308995144 ] } },
{ "type": "Feature", "properties": { "date": "2018-08-09T00:00:00", "source": "SYNTHETIC (stand-in for GSI inventory)" }, "geometry": { "type": "Point", "coordinates": [ 77.084792323082127, 9.237013378356206 ] } },
{ "type": "Feature", "properties": { "date": "2018-08-09T00:00:00", "source": "SYNTHETIC (stand-in for GSI inventory)" }, "geometry": { "type": "Point", "coordinates": [ 76.91696268074368, 9.639869045712055 ] } },
{ "type": "Feature", "properties": { "date": "2018-08-09T00:00:00", "source": "SYNTHETIC (stand-in for GSI inventory)" }, "geometry": { "type": "Point", "coordinates": [ 77.277531096074924, 9.49586875389341 ] } },
{ "type": "Feature", "properties": { "date": "2018-08-09T00:00:00", "source": "SYNTHETIC (stand-in for GSI inventory)" }, "geometry": { "type": "Point", "coordinates": [ 77.129495296145492, 9.885922366335032 ] } },
{ "type": "Feature", "properties": { "date": "2018-08-09T00:00:00", "source": "SYNTHETIC (stand-in for GSI inventory)" }, "geometry": { "type": "Point", "coordinates": [ 77.128913503366491, 9.880502815090448 ] } },
{ "type": "Feature", "properties": { "date": "2018-08-09T00:00:00", "source": "SYNTHETIC (stand-in for GSI inventory)" }, "geometry": { "type": "Point", "coordinates": [ 77.015948907142985, 9.463847856772613 ] } },
{ "type": "Feature", "properties": { "date": "2018-08-09T00:00:00", "source": "SYNTHETIC (stand-in for GSI inventory)" }, "geometry": { "type": "Point", "coordinates": [ 77.087427520120158, 9.936352148064474 ] } },
{ "type": "Feature", "properties": { "date": "2018-08-09T00:00:00", "source": "SYNTHETIC (stand-in for GSI inventory)" }, "geometry": { "type": "Point", "coordinates": [ 77.048605951165584, 9.581350703316097 ] } },
{ "type": "Feature", "properties": { "date": "2018-08-09T00:00:00", "source": "SYNTHETIC (stand-in for GSI inventory)" }, "geometry": { "type": "Point", "coordinates": [ 77.025375093790373, 9.441014069546879 ] } },
{ "type": "Feature", "properties": { "date": "2018-08-09T00:00:00", "source": "SYNTHETIC (stand-in for GSI inventory)" }, "geometry": { "type": "Point", "coordinates": [ 77.227286773913832, 9.951448341263877 ] } },
{ "type": "Feature", "properties": { "date": "2018-08-09T00:00:00", "source": "SYNTHETIC (stand-in for GSI inventory)" }, "geometry": { "type": "Point", "coordinates": [ 76.99406008699475, 9.737601021896344 ] } },
{ "type": "Feature", "properties": { "date": "2018-08-09T00:00:00", "source": "SYNTHETIC (stand-in for GSI inventory)" }, "geometry": { "type": "Point", "coordinates": [ 77.093153007289217, 9.847102297484746 ] } },
{ "type": "Feature", "properties": { "date": "2018-08-09T00:00:00", "source": "SYNTHETIC (stand-in for GSI inventory)" }, "geometry": { "type": "Point", "coordinates": [ 77.229647474474561, 9.814775774499818 ] } },
{ "type": "Feature", "properties": { "date": "2018-08-09T00:00:00", "source": "SYNTHETIC (stand-in for GSI inventory)" }, "geometry": { "type": "Point", "coordinates": [ 77.310381503373833, 9.905876812945415 ] } },
{ "type": "Feature", "properties": { "date": "2018-08-09T00:00:00", "source": "SYNTHETIC (stand-in for GSI inventory)" }, "geometry": { "type": "Point", "coordinates": [ 77.199835988846246, 9.302760744886497 ] } },
{ "type": "Feature", "properties": { "date": "2018-08-09T00:00:00", "source": "SYNTHETIC (stand-in for GSI inventory)" }, "geometry": { "type": "Point", "coordinates": [ 76.817021298329834, 9.292440593935273 ] } },
{ "type": "Feature", "properties": { "date": "2018-08-09T00:00:00", "source": "SYNTHETIC (stand-in for GSI inventory)" }, "geometry": { "type": "Point", "coordinates": [ 76.765664841640117, 9.556056332930716 ] } },
{ "type": "Feature", "properties": { "date": "2018-08-09T00:00:00", "source": "SYNTHETIC (stand-in for GSI inventory)" }, "geometry": { "type": "Point", "coordinates": [ 77.118403314228047, 9.513410387524489 ] } },
{ "type": "Feature", "properties": { "date": "2018-08-09T00:00:00", "source": "SYNTHETIC (stand-in for GSI inventory)" }, "geometry": { "type": "Point", "coordinates": [ 77.038803591027019, 9.448800756689025 ] } },
{ "type": "Feature", "properties": { "date": "2018-08-09T00:00:00", "source": "SYNTHETIC (stand-in for GSI inventory)" }, "geometry": { "type": "Point", "coordinates": [ 77.008643950553989, 9.381448754804671 ] } },
{ "type": "Feature", "properties": { "date": "2018-08-09T00:00:00", "source": "SYNTHETIC (stand-in for GSI inventory)" }, "geometry": { "type": "Point", "coordinates": [ 77.186015726000051, 9.87308682764078 ] } },
{ "type": "Feature", "properties": { "date": "2018-08-09T00:00:00", "source": "SYNTHETIC (stand-in for GSI inventory)" }, "geometry": { "type": "Point", "coordinates": [ 77.286126720599682, 9.838530326831785 ] } },
{ "type": "Feature", "properties": { "date": "2018-08-09T00:00:00", "source": "SYNTHETIC (stand-in for GSI inventory)" }, "geometry": { "type": "Point", "coordinates": [ 76.988734921175478, 9.715394798850157 ] } },
{ "type": "Feature", "properties": { "date": "2018-08-09T00:00:00", "source": "SYNTHETIC (stand-in for GSI inventory)" }, "geometry": { "type": "Point", "coordinates": [ 76.957833443115206, 9.329392689254384 ] } },
{ "type": "Feature", "properties": { "date": "2018-08-09T00:00:00", "source": "SYNTHETIC (stand-in for GSI inventory)" }, "geometry": { "type": "Point", "coordinates": [ 77.030465252109465, 9.377256421878943 ] } },
{ "type": "Feature", "properties": { "date": "2018-08-09T00:00:00", "source": "SYNTHETIC (stand-in for GSI inventory)" }, "geometry": { "type": "Point", "coordinates": [ 77.2479852275859, 9.81790827435691 ] } },
{ "type": "Feature", "properties": { "date": "2018-08-09T00:00:00", "source": "SYNTHETIC (stand-in for GSI inventory)" }, "geometry": { "type": "Point", "coordinates": [ 77.102018181297979, 10.078622159525125 ] } },
{ "type": "Feature", "properties": { "date": "2018-08-09T00:00:00", "source": "SYNTHETIC (stand-in for GSI inventory)" }, "geometry": { "type": "Point", "coordinates": [ 77.003072250788023, 9.597616768828654 ] } },
{ "type": "Feature", "properties": { "date": "2018-08-09T00:00:00", "source": "SYNTHETIC (stand-in for GSI inventory)" }, "geometry": { "type": "Point", "coordinates": [ 77.230268987296057, 9.451704846074973 ] } },
{ "type": "Feature", "properties": { "date": "2018-08-09T00:00:00", "source": "SYNTHETIC (stand-in for GSI inventory)" }, "geometry": { "type": "Point", "coordinates": [ 77.28315306214769, 9.843430872304779 ] } },
{ "type": "Feature", "properties": { "date": "2018-08-09T00:00:00", "source": "SYNTHETIC (stand-in for GSI inventory)" }, "geometry": { "type": "Point", "coordinates": [ 77.297783200355227, 9.863666623034073 ] } },
{ "type": "Feature", "properties": { "date": "2018-08-09T00:00:00", "source": "SYNTHETIC (stand-in for GSI inventory)" }, "geometry": { "type": "Point", "coordinates": [ 77.217495384254889, 10.040177879707056 ] } },
{ "type": "Feature", "properties": { "date": "2018-08-09T00:00:00", "source": "SYNTHETIC (stand-in for GSI inventory)" }, "geometry": { "type": "Point", "coordinates": [ 77.310470583197556, 9.840262673974452 ] } },
{ "type": "Feature", "properties": { "date": "2018-08-09T00:00:00", "source": "SYNTHETIC (stand-in for GSI inventory)" }, "geometry": { "type": "Point", "coordinates": [ 77.208071694360996, 9.609656135812418 ] } },
{ "type": "Feature", "properties": { "date": "2018-08-09T00:00:00", "source": "SYNTHETIC (stand-in for GSI inventory)" }, "geometry": { "type": "Point", "coordinates": [ 76.897805670680782, 9.387484786099106 ] } },
{ "type": "Feature", "properties": { "date": "2018-08-09T00:00:00", "source": "SYNTHETIC (stand-in for GSI inventory)" }, "geometry": { "type": "Point", "coordinates": [ 77.038664216722793, 9.517681771197374 ] } },
{ "type": "Feature", "properties": { "date": "2018-08-09T00:00:00", "source": "SYNTHETIC (stand-in for GSI inventory)" }, "geometry": { "type": "Point", "coordinates": [ 77.120144033796805, 9.6617282680727 ] } },
{ "type": "Feature", "properties": { "date": "2018-08-09T00:00:00", "source": "SYNTHETIC (stand-in for GSI inventory)" }, "geometry": { "type": "Point", "coordinates": [ 77.292682292408941, 9.955886568188898 ] } },
{ "type": "Feature", "properties": { "date": "2018-08-09T00:00:00", "source": "SYNTHETIC (stand-in for GSI inventory)" }, "geometry": { "type": "Point", "coordinates": [ 77.022239056235193, 9.69594449174531 ] } },
{ "type": "Feature", "properties": { "date": "2018-08-09T00:00:00", "source": "SYNTHETIC (stand-in for GSI inventory)" }, "geometry": { "type": "Point", "coordinates": [ 77.167926119726246, 9.782637687267739 ] } },
{ "type": "Feature", "properties": { "date": "2018-08-09T00:00:00", "source": "SYNTHETIC (stand-in for GSI inventory)" }, "geometry": { "type": "Point", "coordinates": [ 77.109429267370089, 9.826663595077397 ] } },
{ "type": "Feature", "properties": { "date": "2018-08-09T00:00:00", "source": "SYNTHETIC (stand-in for GSI inventory)" }, "geometry": { "type": "Point", "coordinates": [ 77.008791795138038, 10.223468754366987 ] } },
{ "type": "Feature", "properties": { "date": "2018-08-09T00:00:00", "source": "SYNTHETIC (stand-in for GSI inventory)" }, "geometry": { "type": "Point", "coordinates": [ 77.123723363696215, 9.966222793676236 ] } },
{ "type": "Feature", "properties": { "date": "2018-08-09T00:00:00", "source": "SYNTHETIC (stand-in for GSI inventory)" }, "geometry": { "type": "Point", "coordinates": [ 77.27676469264982, 9.748575918191214 ] } },
{ "type": "Feature", "properties": { "date": "2018-08-09T00:00:00", "source": "SYNTHETIC (stand-in for GSI inventory)" }, "geometry": { "type": "Point", "coordinates": [ 77.240534076657866, 10.04869942310229 ] } },
{ "type": "Feature", "properties": { "date": "2018-08-09T00:00:00", "source": "SYNTHETIC (stand-in for GSI inventory)" }, "geometry": { "type": "Point", "coordinates": [ 77.26956032037198, 9.93435350732867 ] } },
{ "type": "Feature", "properties": { "date": "2018-08-09T00:00:00", "source": "SYNTHETIC (stand-in for GSI inventory)" }, "geometry": { "type": "Point", "coordinates": [ 77.312460765309311, 9.890408111281417 ] } },
{ "type": "Feature", "properties": { "date": "2018-08-09T00:00:00", "source": "SYNTHETIC (stand-in for GSI inventory)" }, "geometry": { "type": "Point", "coordinates": [ 77.077588543759163, 9.894110883778541 ] } },
{ "type": "Feature", "properties": { "date": "2018-08-09T00:00:00", "source": "SYNTHETIC (stand-in for GSI inventory)" }, "geometry": { "type": "Point", "coordinates": [ 77.029495432351354, 10.207341213691015 ] } },
{ "type": "Feature", "properties": { "date": "2018-08-09T00:00:00", "source": "SYNTHETIC (stand-in for GSI inventory)" }, "geometry": { "type": "Point", "coordinates": [ 77.299127726229415, 9.781233023808035 ] } },
{ "type": "Feature", "properties": { "date": "2018-08-09T00:00:00", "source": "SYNTHETIC (stand-in for GSI inventory)" }, "geometry": { "type": "Point", "coordinates": [ 77.147326225938315, 10.020032047469071 ] } },
{ "type": "Feature", "properties": { "date": "2018-08-09T00:00:00", "source": "SYNTHETIC (stand-in for GSI inventory)" }, "geometry": { "type": "Point", "coordinates": [ 77.128305611984274, 9.871015993496808 ] } },
{ "type": "Feature", "properties": { "date": "2018-08-09T00:00:00", "source": "SYNTHETIC (stand-in for GSI inventory)" }, "geometry": { "type": "Point", "coordinates": [ 77.221096084061159, 10.046661219258731 ] } },
{ "type": "Feature", "properties": { "date": "2018-08-09T00:00:00", "source": "SYNTHETIC (stand-in for GSI inventory)" }, "geometry": { "type": "Point", "coordinates": [ 76.765758368655014, 10.189347976160477 ] } },
{ "type": "Feature", "properties": { "date": "2018-08-09T00:00:00", "source": "SYNTHETIC (stand-in for GSI inventory)" }, "geometry": { "type": "Point", "coordinates": [ 77.262655617914504, 9.964225399981395 ] } },
{ "type": "Feature", "properties": { "date": "2018-08-09T00:00:00", "source": "SYNTHETIC (stand-in for GSI inventory)" }, "geometry": { "type": "Point", "coordinates": [ 77.258949212193485, 9.942288290262253 ] } },
{ "type": "Feature", "properties": { "date": "2018-08-09T00:00:00", "source": "SYNTHETIC (stand-in for GSI inventory)" }, "geometry": { "type": "Point", "coordinates": [ 76.721613853824465, 10.022512104318466 ] } },
{ "type": "Feature", "properties": { "date": "2018-08-09T00:00:00", "source": "SYNTHETIC (stand-in for GSI inventory)" }, "geometry": { "type": "Point", "coordinates": [ 77.299393953388631, 9.976988662299213 ] } },
{ "type": "Feature", "properties": { "date": "2018-08-09T00:00:00", "source": "SYNTHETIC (stand-in for GSI inventory)" }, "geometry": { "type": "Point", "coordinates": [ 77.214090420262309, 9.818673896936264 ] } },
{ "type": "Feature", "properties": { "date": "2018-08-09T00:00:00", "source": "SYNTHETIC (stand-in for GSI inventory)" }, "geometry": { "type": "Point", "coordinates": [ 77.280776167909039, 10.013448487011965 ] } },
{ "type": "Feature", "properties": { "date": "2018-08-09T00:00:00", "source": "SYNTHETIC (stand-in for GSI inventory)" }, "geometry": { "type": "Point", "coordinates": [ 77.10453266250201, 9.297641217368023 ] } },
{ "type": "Feature", "properties": { "date": "2018-08-09T00:00:00", "source": "SYNTHETIC (stand-in for GSI inventory)" }, "geometry": { "type": "Point", "coordinates": [ 77.156903288689449, 9.937267500976489 ] } },
{ "type": "Feature", "properties": { "date": "2018-08-09T00:00:00", "source": "SYNTHETIC (stand-in for GSI inventory)" }, "geometry": { "type": "Point", "coordinates": [ 77.195810579610423, 9.865702047222142 ] } },
{ "type": "Feature", "properties": { "date": "2018-08-09T00:00:00", "source": "SYNTHETIC (stand-in for GSI inventory)" }, "geometry": { "type": "Point", "coordinates": [ 77.233336700622232, 9.794144455464258 ] } },
{ "type": "Feature", "properties": { "date": "2018-08-09T00:00:00", "source": "SYNTHETIC (stand-in for GSI inventory)" }, "geometry": { "type": "Point", "coordinates": [ 77.243929527443782, 9.98550077368529 ] } },
{ "type": "Feature", "properties": { "date": "2018-08-09T00:00:00", "source": "SYNTHETIC (stand-in for GSI inventory)" }, "geometry": { "type": "Point", "coordinates": [ 76.967245296708711, 9.544668632076114 ] } },
{ "type": "Feature", "properties": { "date": "2018-08-09T00:00:00", "source": "SYNTHETIC (stand-in for GSI inventory)" }, "geometry": { "type": "Point", "coordinates": [ 76.976688560649606, 9.524004599650457 ] } },
{ "type": "Feature", "properties": { "date": "2018-08-09T00:00:00", "source": "SYNTHETIC (stand-in for GSI inventory)" }, "geometry": { "type": "Point", "coordinates": [ 77.29673282033113, 9.869909836432933 ] } },
{ "type": "Feature", "properties": { "date": "2018-08-09T00:00:00", "source": "SYNTHETIC (stand-in for GSI inventory)" }, "geometry": { "type": "Point", "coordinates": [ 77.229733204125395, 10.029521218713921 ] } },
{ "type": "Feature", "properties": { "date": "2018-08-09T00:00:00", "source": "SYNTHETIC (stand-in for GSI inventory)" }, "geometry": { "type": "Point", "coordinates": [ 77.142155676111713, 9.771141207857671 ] } },
{ "type": "Feature", "properties": { "date": "2018-08-09T00:00:00", "source": "SYNTHETIC (stand-in for GSI inventory)" }, "geometry": { "type": "Point", "coordinates": [ 77.144297345814621, 9.764077536693945 ] } },
{ "type": "Feature", "properties": { "date": "2018-08-09T00:00:00", "source": "SYNTHETIC (stand-in for GSI inventory)" }, "geometry": { "type": "Point", "coordinates": [ 76.975808233909561, 9.513433126122312 ] } },
{ "type": "Feature", "properties": { "date": "2018-08-09T00:00:00", "source": "SYNTHETIC (stand-in for GSI inventory)" }, "geometry": { "type": "Point", "coordinates": [ 77.229265984897594, 9.880124243134008 ] } },
{ "type": "Feature", "properties": { "date": "2018-08-09T00:00:00", "source": "SYNTHETIC (stand-in for GSI inventory)" }, "geometry": { "type": "Point", "coordinates": [ 77.344646416317516, 9.684401188856592 ] } },
{ "type": "Feature", "properties": { "date": "2018-08-09T00:00:00", "source": "SYNTHETIC (stand-in for GSI inventory)" }, "geometry": { "type": "Point", "coordinates": [ 77.085098426899862, 10.128081604107159 ] } },
{ "type": "Feature", "properties": { "date": "2018-08-09T00:00:00", "source": "SYNTHETIC (stand-in for GSI inventory)" }, "geometry": { "type": "Point", "coordinates": [ 77.211599993996174, 9.977582567756523 ] } },
{ "type": "Feature", "properties": { "date": "2018-08-09T00:00:00", "source": "SYNTHETIC (stand-in for GSI inventory)" }, "geometry": { "type": "Point", "coordinates": [ 76.830252751442487, 9.420929108938703 ] } },
{ "type": "Feature", "properties": { "date": "2018-08-09T00:00:00", "source": "SYNTHETIC (stand-in for GSI inventory)" }, "geometry": { "type": "Point", "coordinates": [ 76.964393782987329, 10.081096631441209 ] } },
{ "type": "Feature", "properties": { "date": "2018-08-09T00:00:00", "source": "SYNTHETIC (stand-in for GSI inventory)" }, "geometry": { "type": "Point", "coordinates": [ 76.808012551506749, 10.157385757514682 ] } },
{ "type": "Feature", "properties": { "date": "2018-08-09T00:00:00", "source": "SYNTHETIC (stand-in for GSI inventory)" }, "geometry": { "type": "Point", "coordinates": [ 77.08286501428546, 9.863436093952245 ] } },
{ "type": "Feature", "properties": { "date": "2018-08-09T00:00:00", "source": "SYNTHETIC (stand-in for GSI inventory)" }, "geometry": { "type": "Point", "coordinates": [ 77.154483039400219, 9.859732132567824 ] } },
{ "type": "Feature", "properties": { "date": "2018-08-09T00:00:00", "source": "SYNTHETIC (stand-in for GSI inventory)" }, "geometry": { "type": "Point", "coordinates": [ 76.640782724974159, 10.001222818494291 ] } },
{ "type": "Feature", "properties": { "date": "2018-08-09T00:00:00", "source": "SYNTHETIC (stand-in for GSI inventory)" }, "geometry": { "type": "Point", "coordinates": [ 76.813979440432476, 9.700364582675547 ] } },
{ "type": "Feature", "properties": { "date": "2018-08-09T00:00:00", "source": "SYNTHETIC (stand-in for GSI inventory)" }, "geometry": { "type": "Point", "coordinates": [ 76.859620905112081, 10.039938397503255 ] } },
{ "type": "Feature", "properties": { "date": "2018-08-09T00:00:00", "source": "SYNTHETIC (stand-in for GSI inventory)" }, "geometry": { "type": "Point", "coordinates": [ 77.292626118037191, 9.869124408005634 ] } },
{ "type": "Feature", "properties": { "date": "2018-08-09T00:00:00", "source": "SYNTHETIC (stand-in for GSI inventory)" }, "geometry": { "type": "Point", "coordinates": [ 77.002045444448001, 9.74731690820718 ] } },
{ "type": "Feature", "properties": { "date": "2018-08-09T00:00:00", "source": "SYNTHETIC (stand-in for GSI inventory)" }, "geometry": { "type": "Point", "coordinates": [ 77.03567223026559, 9.51986869589633 ] } },
{ "type": "Feature", "properties": { "date": "2018-08-09T00:00:00", "source": "SYNTHETIC (stand-in for GSI inventory)" }, "geometry": { "type": "Point", "coordinates": [ 77.293921000042175, 9.937441071839798 ] } },
{ "type": "Feature", "properties": { "date": "2018-08-09T00:00:00", "source": "SYNTHETIC (stand-in for GSI inventory)" }, "geometry": { "type": "Point", "coordinates": [ 76.948138434147367, 9.353582545207766 ] } },
{ "type": "Feature", "properties": { "date": "2018-08-09T00:00:00", "source": "SYNTHETIC (stand-in for GSI inventory)" }, "geometry": { "type": "Point", "coordinates": [ 77.126888878126465, 9.820588708557329 ] } },
{ "type": "Feature", "properties": { "date": "2018-08-09T00:00:00", "source": "SYNTHETIC (stand-in for GSI inventory)" }, "geometry": { "type": "Point", "coordinates": [ 77.231003480742388, 9.894483373248766 ] } },
{ "type": "Feature", "properties": { "date": "2018-08-09T00:00:00", "source": "SYNTHETIC (stand-in for GSI inventory)" }, "geometry": { "type": "Point", "coordinates": [ 77.123546323730181, 9.938836596909443 ] } },
{ "type": "Feature", "properties": { "date": "2018-08-09T00:00:00", "source": "SYNTHETIC (stand-in for GSI inventory)" }, "geometry": { "type": "Point", "coordinates": [ 77.180448090005271, 9.940911084414797 ] } },
{ "type": "Feature", "properties": { "date": "2018-08-09T00:00:00", "source": "SYNTHETIC (stand-in for GSI inventory)" }, "geometry": { "type": "Point", "coordinates": [ 77.292702805507389, 9.840654845648865 ] } },
{ "type": "Feature", "properties": { "date": "2018-08-09T00:00:00", "source": "SYNTHETIC (stand-in for GSI inventory)" }, "geometry": { "type": "Point", "coordinates": [ 77.155762646900641, 10.05468523176746 ] } },
{ "type": "Feature", "properties": { "date": "2018-08-09T00:00:00", "source": "SYNTHETIC (stand-in for GSI inventory)" }, "geometry": { "type": "Point", "coordinates": [ 76.978376696747759, 9.67369182669159 ] } },
{ "type": "Feature", "properties": { "date": "2018-08-09T00:00:00", "source": "SYNTHETIC (stand-in for GSI inventory)" }, "geometry": { "type": "Point", "coordinates": [ 76.868643847018134, 9.550093842469151 ] } },
{ "type": "Feature", "properties": { "date": "2018-08-09T00:00:00", "source": "SYNTHETIC (stand-in for GSI inventory)" }, "geometry": { "type": "Point", "coordinates": [ 77.244242369393064, 9.749062705522142 ] } },
{ "type": "Feature", "properties": { "date": "2018-08-09T00:00:00", "source": "SYNTHETIC (stand-in for GSI inventory)" }, "geometry": { "type": "Point", "coordinates": [ 77.085889823228712, 10.165768526230547 ] } },
{ "type": "Feature", "properties": { "date": "2018-08-09T00:00:00", "source": "SYNTHETIC (stand-in for GSI inventory)" }, "geometry": { "type": "Point", "coordinates": [ 77.299312109344939, 9.88697357189665 ] } },
{ "type": "Feature", "properties": { "date": "2018-08-09T00:00:00", "source": "SYNTHETIC (stand-in for GSI inventory)" }, "geometry": { "type": "Point", "coordinates": [ 76.792214771689657, 10.171575387491879 ] } },
{ "type": "Feature", "properties": { "date": "2018-08-09T00:00:00", "source": "SYNTHETIC (stand-in for GSI inventory)" }, "geometry": { "type": "Point", "coordinates": [ 76.989815364837085, 9.526370640317788 ] } },
{ "type": "Feature", "properties": { "date": "2018-08-09T00:00:00", "source": "SYNTHETIC (stand-in for GSI inventory)" }, "geometry": { "type": "Point", "coordinates": [ 77.071154240087012, 9.958146848666043 ] } },
{ "type": "Feature", "properties": { "date": "2018-08-09T00:00:00", "source": "SYNTHETIC (stand-in for GSI inventory)" }, "geometry": { "type": "Point", "coordinates": [ 77.314706439911376, 9.701685806554776 ] } },
{ "type": "Feature", "properties": { "date": "2018-08-09T00:00:00", "source": "SYNTHETIC (stand-in for GSI inventory)" }, "geometry": { "type": "Point", "coordinates": [ 77.103992051560212, 9.831578448397337 ] } },
{ "type": "Feature", "properties": { "date": "2018-08-09T00:00:00", "source": "SYNTHETIC (stand-in for GSI inventory)" }, "geometry": { "type": "Point", "coordinates": [ 77.247471423628781, 9.822792245127109 ] } },
{ "type": "Feature", "properties": { "date": "2018-08-09T00:00:00", "source": "SYNTHETIC (stand-in for GSI inventory)" }, "geometry": { "type": "Point", "coordinates": [ 76.998568597950552, 9.19384170800274 ] } },
{ "type": "Feature", "properties": { "date": "2018-08-09T00:00:00", "source": "SYNTHETIC (stand-in for GSI inventory)" }, "geometry": { "type": "Point", "coordinates": [ 77.185133445723295, 9.905088502007834 ] } },
{ "type": "Feature", "properties": { "date": "2018-08-09T00:00:00", "source": "SYNTHETIC (stand-in for GSI inventory)" }, "geometry": { "type": "Point", "coordinates": [ 76.849431351395467, 9.584640169132348 ] } },
{ "type": "Feature", "properties": { "date": "2018-08-09T00:00:00", "source": "SYNTHETIC (stand-in for GSI inventory)" }, "geometry": { "type": "Point", "coordinates": [ 77.322973473976035, 9.711661653466706 ] } },
{ "type": "Feature", "properties": { "date": "2018-08-09T00:00:00", "source": "SYNTHETIC (stand-in for GSI inventory)" }, "geometry": { "type": "Point", "coordinates": [ 77.304058008356733, 9.940082747033184 ] } },
{ "type": "Feature", "properties": { "date": "2018-08-09T00:00:00", "source": "SYNTHETIC (stand-in for GSI inventory)" }, "geometry": { "type": "Point", "coordinates": [ 76.786481915094086, 9.460480697832491 ] } },
{ "type": "Feature", "properties": { "date": "2018-08-09T00:00:00", "source": "SYNTHETIC (stand-in for GSI inventory)" }, "geometry": { "type": "Point", "coordinates": [ 77.300778552851838, 9.979419286119763 ] } },
{ "type": "Feature", "properties": { "date": "2018-08-09T00:00:00", "source": "SYNTHETIC (stand-in for GSI inventory)" }, "geometry": { "type": "Point", "coordinates": [ 77.197626841272225, 9.933206516162981 ] } },
{ "type": "Feature", "properties": { "date": "2018-08-09T00:00:00", "source": "SYNTHETIC (stand-in for GSI inventory)" }, "geometry": { "type": "Point", "coordinates": [ 77.058993485822626, 9.627389253905777 ] } },
{ "type": "Feature", "properties": { "date": "2018-08-09T00:00:00", "source": "SYNTHETIC (stand-in for GSI inventory)" }, "geometry": { "type": "Point", "coordinates": [ 76.862766868228903, 9.723968906634736 ] } },
{ "type": "Feature", "properties": { "date": "2018-08-09T00:00:00", "source": "SYNTHETIC (stand-in for GSI inventory)" }, "geometry": { "type": "Point", "coordinates": [ 76.78147364784617, 9.389446154562807 ] } },
{ "type": "Feature", "properties": { "date": "2018-08-09T00:00:00", "source": "SYNTHETIC (stand-in for GSI inventory)" }, "geometry": { "type": "Point", "coordinates": [ 77.274310417211666, 9.709006049665204 ] } },
{ "type": "Feature", "properties": { "date": "2018-08-09T00:00:00", "source": "SYNTHETIC (stand-in for GSI inventory)" }, "geometry": { "type": "Point", "coordinates": [ 76.555814361284817, 9.737981266908569 ] } },
{ "type": "Feature", "properties": { "date": "2018-08-09T00:00:00", "source": "SYNTHETIC (stand-in for GSI inventory)" }, "geometry": { "type": "Point", "coordinates": [ 77.178747366973667, 9.765214568845895 ] } }
]
}
