{
"type": "FeatureCollection",
"name": "risk_regions",
"crs": { "type": "name", "properties": { "name": "urn:ogc:def:crs:OGC:1.3:CRS84" } },
"features": [
{ "type": "Feature", "properties": { "risk_class": 4, "risk_name": "High", "prob_mean": 0.60205119848251343, "prob_max": 0.60417640209197998, "area_km2": 0.1701 }, "geometry": { "type": "Polygon", "coordinates": [ [ [ 77.26463206723561, 10.032402897442241 ], [ 77.262981376190083, 10.031058481464147 ], [ 77.26296819740142, 10.029160614935195 ], [ 77.267071342955973, 10.029132601935707 ], [ 77.267622200940792, 10.02967110889538 ], [ 77.267633520692073, 10.031297846338731 ], [ 77.266546886822724, 10.032389817231639 ], [ 77.26463206723561, 10.032402897442241 ] ] ] } },
{ "type": "Feature", "properties": { "risk_class": 4, "risk_name": "High", "prob_mean": 0.60097682476043701, "prob_max": 0.60199874639511108, "area_km2": 0.1152 }, "geometry": { "type": "Polygon", "coordinates": [ [ [ 77.256918319011902, 10.024592484444423 ], [ 77.255816653249767, 10.023515421798763 ], [ 77.25553186264797, 10.021890528756318 ], [ 77.256073314145468, 10.02107343585994 ], [ 77.257439126972741, 10.020793014671984 ], [ 77.258816201502597, 10.022139336664559 ], [ 77.258829346726387, 10.024037209457944 ], [ 77.258559562577744, 10.02458132026808 ], [ 77.256918319011902, 10.024592484444423 ] ] ] } },
{ "type": "Feature", "properties": { "risk_class": 4, "risk_name": "High", "prob_mean": 0.60177433490753174, "prob_max": 0.60356432199478149, "area_km2": 0.1296 }, "geometry": { "type": "Polygon", "coordinates": [ [ [ 77.210203877692791, 9.953053044511938 ], [ 77.209104448052798, 9.952246872259073 ], [ 77.208821843864712, 9.950893004123875 ], [ 77.209635014581266, 9.949803041621797 ], [ 77.211274111898618, 9.949521057101693 ], [ 77.212648847668959, 9.950596547524425 ], [ 77.212661630578609, 9.952494488524183 ], [ 77.212118304648797, 9.953040378274189 ], [ 77.210203877692791, 9.953053044511938 ] ] ] } },
{ "type": "Feature", "properties": { "risk_class": 4, "risk_name": "High", "prob_mean": 0.60679614543914795, "prob_max": 0.61347317695617676, "area_km2": 0.5742 }, "geometry": { "type": "Polygon", "coordinates": [ [ [ 77.191931261692659, 9.919821901986193 ], [ 77.191105457714386, 9.919013847735851 ], [ 77.190558527618208, 9.919017421275228 ], [ 77.19055492397392, 9.918475143267759 ], [ 77.18973092769825, 9.917938223283707 ], [ 77.18917319654382, 9.916314958514322 ], [ 77.188070347638288, 9.914966398952163 ], [ 77.187780697820855, 9.912527926345181 ], [ 77.188324020606302, 9.911982080615914 ], [ 77.191330272765583, 9.911691309979842 ], [ 77.193523351260467, 9.912490431612808 ], [ 77.195734490774342, 9.916000917844899 ], [ 77.196026012923085, 9.918710507808557 ], [ 77.194118984153093, 9.919807592385855 ], [ 77.191931261692659, 9.919821901986193 ] ] ] } },
{ "type": "Feature", "properties": { "risk_class": 4, "risk_name": "High", "prob_mean": 0.60186737775802612, "prob_max": 0.60385417938232422, "area_km2": 0.2016 }, "geometry": { "type": "Polygon", "coordinates": [ [ [ 77.169650219868302, 9.900172550926362 ], [ 77.168551065455915, 9.899366183963961 ], [ 77.168540385326295, 9.897739324054102 ], [ 77.170710181649923, 9.895013768577925 ], [ 77.172075643020662, 9.89473379242135 ], [ 77.172626105089478, 9.895272542877532 ], [ 77.172647501981132, 9.898526254154751 ], [ 77.171562609026978, 9.899889039495884 ], [ 77.169650219868302, 9.900172550926362 ] ] ] } },
{ "type": "Feature", "properties": { "risk_class": 4, "risk_name": "High", "prob_mean": 0.61116230487823486, "prob_max": 0.61878842115402222, "area_km2": 0.1224 }, "geometry": { "type": "Polygon", "coordinates": [ [ [ 77.117195869670525, 9.865527139527329 ], [ 77.11527836887052, 9.864996850118862 ], [ 77.13551409640381, 9.86514041839979 ], [ 77.135515843314892, 9.865411568163719 ], [ 77.117195869670525, 9.865527139527329 ] ] ] } },
{ "type": "Feature", "properties": { "risk_class": 4, "risk_name": "High", "prob_mean": 0.60272419452667236, "prob_max": 0.60553491115570068, "area_km2": 0.2187 }, "geometry": { "type": "Polygon", "coordinates": [ [ [ 77.177509679677968, 9.847789047623248 ], [ 77.176133751867908, 9.846442147456139 ], [ 77.176119540253509, 9.844273005039176 ], [ 77.176661022323685, 9.843456053324649 ], [ 77.178026270245311, 9.843176098890199 ], [ 77.179947219341869, 9.844248321787317 ], [ 77.181047961522168, 9.84532582915862 ], [ 77.181603678546836, 9.846678006282838 ], [ 77.179970355429305, 9.847773169055705 ], [ 77.177509679677968, 9.847789047623248 ] ] ] } },
{ "type": "Feature", "properties": { "risk_class": 4, "risk_name": "High", "prob_mean": 0.60574048757553101, "prob_max": 0.61154741048812866, "area_km2": 0.8262 }, "geometry": { "type": "Polygon", "coordinates": [ [ [ 77.191122820799507, 9.839024123475069 ], [ 77.190020292132431, 9.837675510739592 ], [ 77.188903492747002, 9.834157767216324 ], [ 77.189705826436807, 9.831441050605545 ], [ 77.191337252540535, 9.830074723775462 ], [ 77.193792410536545, 9.829245353397615 ], [ 77.198441831844136, 9.829486316814322 ], [ 77.198992195672488, 9.830025040240027 ], [ 77.199008328096383, 9.832465290039766 ], [ 77.198200697229197, 9.834368595750352 ], [ 77.192216416164825, 9.83901703072307 ], [ 77.191122820799507, 9.839024123475069 ] ] ] } },
{ "type": "Feature", "properties": { "risk_class": 4, "risk_name": "High", "prob_mean": 0.60604369640350342, "prob_max": 0.6123918890953064, "area_km2": 0.6246 }, "geometry": { "type": "Polygon", "coordinates": [ [ [ 77.279557605915514, 9.777433377914358 ], [ 77.277915767159044, 9.777173245932298 ], [ 77.276543570926989, 9.776369024609162 ], [ 77.276515900348429, 9.772302144423085 ], [ 77.27759998781363, 9.770939198988557 ], [ 77.278689603766594, 9.770389627019513 ], [ 77.282518015698258, 9.770635098198134 ], [ 77.284992753912135, 9.772787574045569 ], [ 77.285282746464063, 9.775225850829397 ], [ 77.283653876304712, 9.776863612837911 ], [ 77.279557605915514, 9.777433377914358 ] ] ] } },
{ "type": "Feature", "properties": { "risk_class": 4, "risk_name": "High", "prob_mean": 0.65735357999801636, "prob_max": 0.77570647001266479, "area_km2": 233.1117 }, "geometry": { "type": "Polygon", "coordinates": [ [ [ 77.271704554310617, 10.026660693040991 ], [ 77.270606618525605, 10.02612593674975 ], [ 77.270051988724546, 10.025045189343365 ], [ 77.269482269497644, 10.021795458696836 ], [ 77.26865034724544, 10.020174330039598 ], [ 77.267275135440883, 10.0190991789802 ], [ 77.263715424230227, 10.01858119032579 ], [ 77.261795043663184, 10.017780863795206 ], [ 77.261242338887769, 10.016971215948868 ], [ 77.261229189095573, 10.015073345525208 ], [ 77.262310162986068, 10.013168027223342 ], [ 77.263400523712875, 10.012618328003885 ], [ 77.265041699699509, 10.012607145019633 ], [ 77.270267030618143, 10.016638518925131 ], [ 77.27245716932498, 10.016894677565217 ], [ 77.2740945777918, 10.016341201306743 ], [ 77.275181139340219, 10.015249222058385 ], [ 77.275986603957463, 10.013074628300627 ], [ 77.275958256679459, 10.009007803593132 ], [ 77.275118799540351, 10.006302202423727 ], [ 77.273464460180321, 10.004415572668385 ], [ 77.271276292778893, 10.004430524844322 ], [ 77.266914997599926, 10.006629373679873 ], [ 77.265000329616583, 10.006642422786111 ], [ 77.263896838300781, 10.005294254437572 ], [ 77.263585756323181, 9.999873634162103 ], [ 77.262755816777272, 9.99852359437687 ], [ 77.261110958814442, 9.997992501216693 ], [ 77.256732797635493, 9.99775108434406 ], [ 77.254537171822093, 9.9966814130663 ], [ 77.254252440540711, 9.995056509994004 ], [ 77.255058036226998, 9.992881944847779 ], [ 77.255314729924265, 9.990439959391477 ], [ 77.253355344822623, 9.983945890005776 ], [ 77.252255720023982, 9.983139907087834 ], [ 77.251161691777682, 9.983147299645722 ], [ 77.250071388805665, 9.983696942559103 ], [ 77.248984806322056, 9.98478883699824 ], [ 77.248988531277121, 9.985331091290435 ], [ 77.246270179188031, 9.987789691845066 ], [ 77.240809211026246, 9.989182180639014 ], [ 77.239994235987936, 9.990001086780079 ], [ 77.240001660295064, 9.991085601719542 ], [ 77.238647066790691, 9.992992701571616 ], [ 77.237552995374529, 9.99300005664734 ], [ 77.2364533625137, 9.992194020052656 ], [ 77.236442242743408, 9.990567243760356 ], [ 77.237257229704653, 9.98974834410151 ], [ 77.239711442903811, 9.988647282411032 ], [ 77.24077023640055, 9.983488478871196 ], [ 77.241849425053715, 9.981312091998788 ], [ 77.242666234020817, 9.980764315055952 ], [ 77.242662521265359, 9.98022205825422 ], [ 77.244565917781884, 9.978582403091755 ], [ 77.245373424788511, 9.976678982158731 ], [ 77.24536599363573, 9.975594470292204 ], [ 77.244538059928018, 9.974515481402642 ], [ 77.239613176786875, 9.974277448345193 ], [ 77.237694959813851, 9.973748040210943 ], [ 77.236591702179481, 9.97239972989709 ], [ 77.236576905296374, 9.970230692441689 ], [ 77.23820679560221, 9.968592911693182 ], [ 77.243663750998351, 9.966658279714601 ], [ 77.244478669718234, 9.965839378236275 ], [ 77.245823868153423, 9.962576643318764 ], [ 77.246910406279568, 9.961484771684141 ], [ 77.249907640450388, 9.959837751257295 ], [ 77.25099229586796, 9.958474743933465 ], [ 77.250709515634369, 9.957120950535058 ], [ 77.249606285245221, 9.955772681508273 ], [ 77.249325372241969, 9.954690012542962 ], [ 77.248776548048795, 9.954422566374337 ], [ 77.247941252103388, 9.952259063981776 ], [ 77.246012047911591, 9.950102908330882 ], [ 77.242728426239978, 9.949853812533663 ], [ 77.241913533026548, 9.950672702720027 ], [ 77.241924634577273, 9.952299476776101 ], [ 77.243589610284758, 9.955813138386389 ], [ 77.244155113532571, 9.958520749978442 ], [ 77.243898306615193, 9.960962743889226 ], [ 77.24308524874003, 9.962052770456918 ], [ 77.24008609782814, 9.963428612169521 ], [ 77.235989242851829, 9.964269501946971 ], [ 77.233808671273451, 9.965368670495833 ], [ 77.233538867681702, 9.965912761289786 ], [ 77.231901579626907, 9.966465999154579 ], [ 77.231631772027114, 9.967010089258569 ], [ 77.22999447360634, 9.967563319618982 ], [ 77.229724661997963, 9.968107409032053 ], [ 77.228360852603672, 9.96865880563675 ], [ 77.224561289502944, 9.97302246351483 ], [ 77.223470952515186, 9.97357202203775 ], [ 77.218002689218565, 9.973879575219703 ], [ 77.215537470946913, 9.973353668425966 ], [ 77.213889111437595, 9.972280029180707 ], [ 77.213606452953499, 9.970926174585674 ], [ 77.215234654029743, 9.969017346885009 ], [ 77.218234004661738, 9.967641695313167 ], [ 77.219873171076614, 9.967359651160082 ], [ 77.222595307227607, 9.965443521768664 ], [ 77.224214237078456, 9.962179006257028 ], [ 77.22693446416875, 9.959991724068111 ], [ 77.227198758581721, 9.958634242247831 ], [ 77.226919749848946, 9.957822670668069 ], [ 77.223344173044609, 9.954863897455809 ], [ 77.222786185536009, 9.953240741409546 ], [ 77.222488852833862, 9.94971783632225 ], [ 77.221378418808001, 9.947284911228861 ], [ 77.216712746248277, 9.944875560295424 ], [ 77.214508454967799, 9.942449845475695 ], [ 77.211768180176122, 9.941654533001866 ], [ 77.209295930069345, 9.940043983844292 ], [ 77.208460929939321, 9.937880316429439 ], [ 77.208707108110815, 9.933811480706954 ], [ 77.209246776445553, 9.932723330863153 ], [ 77.210335206264574, 9.931902706606078 ], [ 77.213616868206572, 9.931881030733946 ], [ 77.214995172256153, 9.933498795468036 ], [ 77.21500064652642, 9.934312198314487 ], [ 77.216665230066141, 9.937826080186214 ], [ 77.21859236034895, 9.939711330977865 ], [ 77.220785667483113, 9.940510218111768 ], [ 77.22324696151027, 9.940493873446178 ], [ 77.224333534268894, 9.939402073507189 ], [ 77.225948705490822, 9.935595312087852 ], [ 77.226493815477625, 9.935320542712189 ], [ 77.227573021525885, 9.933144210133952 ], [ 77.228389760003566, 9.932596487642124 ], [ 77.229191808356106, 9.929879710089835 ], [ 77.227806129958381, 9.92717748734084 ], [ 77.226706770494559, 9.926371362411937 ], [ 77.225065982524853, 9.926382262478754 ], [ 77.223162708797091, 9.928021766395192 ], [ 77.220708821679835, 9.929122623414923 ], [ 77.217155560137357, 9.929417306898698 ], [ 77.215780917570129, 9.92834181776017 ], [ 77.214386233399537, 9.924283841196676 ], [ 77.213009801429266, 9.922937198943311 ], [ 77.211638839970007, 9.92240395376934 ], [ 77.208904197191757, 9.922421986040348 ], [ 77.20781397211374, 9.922971464282586 ], [ 77.206727374931035, 9.924063211678233 ], [ 77.205923316814904, 9.926508837392392 ], [ 77.204565048311707, 9.927873518231699 ], [ 77.203197698334719, 9.927882513212133 ], [ 77.202373661341127, 9.927345634122844 ], [ 77.201535129555992, 9.924639657328596 ], [ 77.201788666545269, 9.921655355038839 ], [ 77.20232834910577, 9.920567214985898 ], [ 77.203418580185925, 9.920017754270647 ], [ 77.205588145305981, 9.917292006909493 ], [ 77.206928229543038, 9.913215970719461 ], [ 77.206640261711655, 9.911048680111261 ], [ 77.204445368971562, 9.909978512411781 ], [ 77.201162095753219, 9.909728914144916 ], [ 77.197599947161663, 9.90866765972522 ], [ 77.196221843606736, 9.907049780261218 ], [ 77.196216430919748, 9.906236365763746 ], [ 77.195665916578434, 9.905697666515808 ], [ 77.195102783970299, 9.903260997107074 ], [ 77.19399456607276, 9.901099035941174 ], [ 77.191790773292965, 9.898673066301489 ], [ 77.189873040884294, 9.898143269416501 ], [ 77.186591661937797, 9.898164640656985 ], [ 77.185217244386322, 9.897088974642207 ], [ 77.183810585826919, 9.891132769619915 ], [ 77.182153819002394, 9.88870315323312 ], [ 77.179691055693098, 9.888447971608818 ], [ 77.176413319926766, 9.889011506948577 ], [ 77.175312413234607, 9.887934014956368 ], [ 77.17584681023645, 9.886032481986769 ], [ 77.178563355682087, 9.883303366446368 ], [ 77.180722267011518, 9.878950933536416 ], [ 77.183168863049204, 9.876765853745477 ], [ 77.186167654772859, 9.875390634691213 ], [ 77.186982571609562, 9.874571886996351 ], [ 77.186698400591098, 9.872946820039738 ], [ 77.184496671864267, 9.870791887717276 ], [ 77.181753477959305, 9.869453900064777 ], [ 77.181476481783406, 9.868913387624188 ], [ 77.177362624654634, 9.867041920973312 ], [ 77.174900022333844, 9.866786668572354 ], [ 77.174631935270369, 9.86760186117192 ], [ 77.175747003130056, 9.870848511416716 ], [ 77.175764814016887, 9.873559935807792 ], [ 77.174960551327061, 9.876005517020722 ], [ 77.173330635884852, 9.877642967184219 ], [ 77.171150275766863, 9.878741654295611 ], [ 77.167893914947769, 9.882558813831123 ], [ 77.166530269942683, 9.88310990713282 ], [ 77.164342750138474, 9.883123985079893 ], [ 77.162968458486375, 9.882048198273669 ], [ 77.162952508716486, 9.879607896792219 ], [ 77.164037394752782, 9.878245144360363 ], [ 77.16458426706275, 9.878241628418694 ], [ 77.167030991045209, 9.87605664423497 ], [ 77.167568983779915, 9.87469740487453 ], [ 77.167551237867926, 9.871985965864743 ], [ 77.166995508158507, 9.870633764245323 ], [ 77.165894699652554, 9.869556220698559 ], [ 77.161509221094278, 9.867957445586605 ], [ 77.160408437344941, 9.866879878235089 ], [ 77.160127940901504, 9.865797049529354 ], [ 77.158759041056015, 9.865534663091353 ], [ 77.144814214502915, 9.865623687950981 ], [ 77.140709267479423, 9.865107464460149 ], [ 77.159574021181456, 9.864715971993766 ], [ 77.160113805484258, 9.863627886505205 ], [ 77.161205736917722, 9.863349731553322 ], [ 77.16858640437367, 9.863031180559121 ], [ 77.169129702057148, 9.862485375025823 ], [ 77.169111965774434, 9.859773936872251 ], [ 77.167171452777893, 9.855719078436872 ], [ 77.167155515457139, 9.853278779966443 ], [ 77.1682420897707, 9.852187178253244 ], [ 77.169879027478686, 9.851634347227549 ], [ 77.171246092859732, 9.851625555496133 ], [ 77.172891894730256, 9.852428427965688 ], [ 77.174280279044552, 9.855673339321877 ], [ 77.176757030244076, 9.85809775426322 ], [ 77.186600018774769, 9.858034088643427 ], [ 77.18797603816202, 9.859380925717328 ], [ 77.188533606510092, 9.861004219506716 ], [ 77.190184856448553, 9.862620408047363 ], [ 77.19155553308849, 9.863153803755033 ], [ 77.195108176994694, 9.862859539792975 ], [ 77.198381996223475, 9.861753607210217 ], [ 77.199734688637434, 9.85957558494839 ], [ 77.199723899415986, 9.857948755189977 ], [ 77.199169883446601, 9.856867767260406 ], [ 77.197799229601301, 9.856334399369793 ], [ 77.19041529762363, 9.856111272231153 ], [ 77.189318066346601, 9.855576090862142 ], [ 77.188488885877874, 9.854225710548862 ], [ 77.187086094567164, 9.848811760164301 ], [ 77.187075379298392, 9.847184915528999 ], [ 77.190333007593352, 9.843638825650554 ], [ 77.191971634937204, 9.84335704413939 ], [ 77.193072403947795, 9.844434504540258 ], [ 77.196635604704909, 9.845767102515339 ], [ 77.19909623389502, 9.845751087880327 ], [ 77.201276268533618, 9.844652284720292 ], [ 77.203706308896969, 9.840026895059101 ], [ 77.209140011037363, 9.834839587637752 ], [ 77.20913640829319, 9.834297313727053 ], [ 77.210224568425545, 9.83347675580832 ], [ 77.210220964422831, 9.832934482252648 ], [ 77.211578901192254, 9.831569861303688 ], [ 77.21157529569534, 9.831027588185085 ], [ 77.212120269671132, 9.830752875584929 ], [ 77.213469170974591, 9.828032569239928 ], [ 77.215366625199295, 9.825579818586432 ], [ 77.215913391934635, 9.82557623828963 ], [ 77.217544658825105, 9.824209814299058 ], [ 77.218364804261029, 9.824204438988277 ], [ 77.218907952942828, 9.823658583693311 ], [ 77.220546430511831, 9.823376690050088 ], [ 77.223544560059736, 9.822001273428492 ], [ 77.22544371472793, 9.819819623511561 ], [ 77.227062219831524, 9.816555230504072 ], [ 77.228964951483562, 9.814915839368304 ], [ 77.234142652293528, 9.81244142508212 ], [ 77.236041683655344, 9.810259741956678 ], [ 77.237388503215485, 9.807268266456365 ], [ 77.239834211544988, 9.805082964313291 ], [ 77.249651440938479, 9.801493118296111 ], [ 77.251563110780822, 9.801209290855507 ], [ 77.25374263729222, 9.800110249398179 ], [ 77.254555376222868, 9.799020283331403 ], [ 77.254540725026757, 9.796851250437529 ], [ 77.252605304213262, 9.793610404898834 ], [ 77.252045805032893, 9.791716125095826 ], [ 77.251497279614696, 9.791448621556789 ], [ 77.251491796789594, 9.790635232176054 ], [ 77.250941446579361, 9.790096597318481 ], [ 77.251209312870657, 9.789281395447839 ], [ 77.253671262468742, 9.789536205959147 ], [ 77.25531683325147, 9.790338703789114 ], [ 77.256417547311898, 9.791415954641108 ], [ 77.257248585240134, 9.793037275418719 ], [ 77.257255916295662, 9.794121790113849 ], [ 77.258362152596533, 9.796012415548054 ], [ 77.260281116408905, 9.796813059838746 ], [ 77.263563168033002, 9.79706232055965 ], [ 77.265482144225174, 9.797862931197017 ], [ 77.266320609785595, 9.80056872314286 ], [ 77.266335343191884, 9.80273773784835 ], [ 77.267722394303362, 9.805710992623704 ], [ 77.270463348123002, 9.806777200155329 ], [ 77.273193225451749, 9.806216628752731 ], [ 77.274550762553588, 9.804851834668321 ], [ 77.274519337823591, 9.800242705003608 ], [ 77.273970787104119, 9.799975245158054 ], [ 77.273965244663017, 9.799161868870813 ], [ 77.273418543089647, 9.799165533152406 ], [ 77.273414849283384, 9.798623282064291 ], [ 77.272868148382003, 9.798626945260057 ], [ 77.272864455676512, 9.7980846939467 ], [ 77.272044405252089, 9.798090186782074 ], [ 77.271767364284926, 9.797549765542609 ], [ 77.26765974327823, 9.79649268856398 ], [ 77.266830488941466, 9.795142533766622 ], [ 77.266802882407987, 9.7910756305349 ], [ 77.267610035022415, 9.78917226679321 ], [ 77.27033425801757, 9.787798370369972 ], [ 77.271418410987707, 9.786435428725214 ], [ 77.271411039861988, 9.785350924208084 ], [ 77.270585494065529, 9.784543027570706 ], [ 77.26729806084083, 9.783480427274052 ], [ 77.267010013271303, 9.781313235144356 ], [ 77.26754933341185, 9.780225080015233 ], [ 77.269726822458878, 9.778854850663981 ], [ 77.273553506286987, 9.778829276424023 ], [ 77.274652374964674, 9.779635338473064 ], [ 77.275487139275981, 9.781798853132861 ], [ 77.276312685880313, 9.782606736819785 ], [ 77.282348296980572, 9.785819886720988 ], [ 77.284263516391405, 9.78607814860001 ], [ 77.286716136286472, 9.784977102770146 ], [ 77.289702407995037, 9.781974499924823 ], [ 77.290780882056652, 9.779798150569183 ], [ 77.290775310385399, 9.778984782890531 ], [ 77.293746626128865, 9.773813187385473 ], [ 77.294280266860866, 9.771911645865766 ], [ 77.294235675764739, 9.765404716266485 ], [ 77.293949358147572, 9.763508703203309 ], [ 77.293399010052838, 9.762970141731513 ], [ 77.285742400673584, 9.762479363526378 ], [ 77.285192064782834, 9.761940785342386 ], [ 77.285454286616059, 9.760312207583544 ], [ 77.288722974057663, 9.758663439575061 ], [ 77.292000893940425, 9.758370260726833 ], [ 77.293648199024972, 9.759443710478864 ], [ 77.294211535258555, 9.761880128279959 ], [ 77.295037056265258, 9.762687968237353 ], [ 77.302693635469495, 9.76317853296994 ], [ 77.304052755018304, 9.762084805305234 ], [ 77.304320475408758, 9.761269594797177 ], [ 77.304288783897988, 9.756660549705936 ], [ 77.305372701802597, 9.755297552001114 ], [ 77.307006957306385, 9.754473091973665 ], [ 77.307384900936455, 9.809239207025488 ], [ 77.307228508398111, 9.904678410077443 ], [ 77.306683540435586, 9.904953285064044 ], [ 77.30613099502132, 9.904143688883826 ], [ 77.303672005968693, 9.904431699670035 ], [ 77.302863059738911, 9.906064036161446 ], [ 77.302318084480476, 9.906338905374936 ], [ 77.301248929559407, 9.909870945240325 ], [ 77.301262168565771, 9.911768774437363 ], [ 77.302367276307763, 9.913387980239584 ], [ 77.303738260215709, 9.91392083016553 ], [ 77.307292969688518, 9.913896399321183 ], [ 77.307255130748743, 9.947516789090225 ], [ 77.306719615673572, 9.949147263520741 ], [ 77.305950600258058, 9.956473079073987 ], [ 77.305126369997538, 9.955936507005884 ], [ 77.304571810725463, 9.954855811870694 ], [ 77.301556000220003, 9.953792075804275 ], [ 77.299915160779321, 9.953803373005107 ], [ 77.296644852082039, 9.955452655080558 ], [ 77.29254271488908, 9.955480827400359 ], [ 77.291454485493091, 9.956301690335522 ], [ 77.291463946432458, 9.957657288248715 ], [ 77.292014688457215, 9.95819577472064 ], [ 77.295847175464814, 9.958711718519396 ], [ 77.298593346858425, 9.960319618574957 ], [ 77.302965200674436, 9.959747237955735 ], [ 77.304875736185252, 9.959191797889716 ], [ 77.305418881760701, 9.958645789148195 ], [ 77.301520411217581, 9.98768364189565 ], [ 77.300707530560999, 9.988773779688918 ], [ 77.30073803368667, 9.993111655909683 ], [ 77.299693582881602, 10.000168266713199 ], [ 77.29887685978612, 10.000716172692634 ], [ 77.298320303046353, 9.999364364609006 ], [ 77.296950838839265, 9.999102690999559 ], [ 77.295864407792919, 10.000194714351149 ], [ 77.295326901422669, 10.00155407966778 ], [ 77.295334518007863, 10.002638552120377 ], [ 77.296162683031469, 10.00371736015946 ], [ 77.287470911093607, 10.012453500198305 ], [ 77.285831659870112, 10.01273591348367 ], [ 77.284475416790045, 10.014372038812537 ], [ 77.284211376960613, 10.015729519625403 ], [ 77.273345791422301, 10.026649453493215 ], [ 77.271704554310617, 10.026660693040991 ] ], [ [ 77.275362113584876, 10.001962380728957 ], [ 77.277550258231173, 10.001947405337889 ], [ 77.279732726115753, 10.001119052315136 ], [ 77.281087065442861, 9.999211831225578 ], [ 77.28107193293252, 9.997042864111192 ], [ 77.278589533765484, 9.994077392871061 ], [ 77.273100462013502, 9.991403567510011 ], [ 77.27200642198288, 9.991411034577483 ], [ 77.270919908913726, 9.992502989709335 ], [ 77.270667101097544, 9.995487207443169 ], [ 77.273713458450857, 10.000889113925634 ], [ 77.275362113584876, 10.001962380728957 ] ], [ [ 77.270276993993747, 9.978679440996578 ], [ 77.272191491376432, 9.978666397676546 ], [ 77.272730966947307, 9.977578177823192 ], [ 77.272449947057268, 9.976495550609801 ], [ 77.271625695041465, 9.97595889531269 ], [ 77.270807081754498, 9.976235606949116 ], [ 77.269994101582284, 9.97732568687004 ], [ 77.270276993993747, 9.978679440996578 ] ], [ [ 77.25714520529462, 9.978226333877902 ], [ 77.258788085218342, 9.97848634508564 ], [ 77.259331349317605, 9.977940387819531 ], [ 77.259323871029267, 9.976855886491968 ], [ 77.2587731322553, 9.976317341608926 ], [ 77.257133998702969, 9.976599579422702 ], [ 77.25714520529462, 9.978226333877902 ] ], [ [ 77.290741950281244, 9.97176113463636 ], [ 77.291835910361428, 9.971753620688173 ], [ 77.292105609175522, 9.971209503192883 ], [ 77.292652587879715, 9.97120574463721 ], [ 77.29264310889414, 9.969850148952931 ], [ 77.292092342134083, 9.969311668472189 ], [ 77.290451414199836, 9.969322936582213 ], [ 77.289634735753054, 9.96987080706997 ], [ 77.289917692193256, 9.971224528466083 ], [ 77.290741950281244, 9.97176113463636 ] ], [ [ 77.255427708176157, 9.967121268564478 ], [ 77.258162635450731, 9.967102774869602 ], [ 77.260065873006894, 9.965463063741822 ], [ 77.260603513278468, 9.964103733326422 ], [ 77.260582967581939, 9.96112135465853 ], [ 77.26002852568098, 9.960040555065321 ], [ 77.259481553126818, 9.960044256054015 ], [ 77.259204334564203, 9.959503854933082 ], [ 77.25592063621032, 9.959254911914623 ], [ 77.254285303221323, 9.960079370857754 ], [ 77.254043475382176, 9.964690368452661 ], [ 77.254603501644169, 9.966584559533633 ], [ 77.255427708176157, 9.967121268564478 ] ], [ [ 77.265642713904796, 9.941294045760422 ], [ 77.269199684508337, 9.941541076811145 ], [ 77.270836753789112, 9.940987696441935 ], [ 77.272739789653613, 9.939347958229053 ], [ 77.273279227971926, 9.938259749886139 ], [ 77.273267987440278, 9.936633009787684 ], [ 77.271885690208165, 9.934473304000115 ], [ 77.270244913002273, 9.934484434174403 ], [ 77.266440703615487, 9.9380349939629 ], [ 77.265361774148374, 9.940211398352224 ], [ 77.265642713904796, 9.941294045760422 ] ], [ [ 77.245856551818235, 9.927328117155989 ], [ 77.247770782461188, 9.927315279702281 ], [ 77.24831400325391, 9.926769353434057 ], [ 77.249679454557352, 9.926489047463766 ], [ 77.250765884510088, 9.925397190177767 ], [ 77.250747361284468, 9.922685912162793 ], [ 77.2501967442048, 9.922147328418026 ], [ 77.248007240112329, 9.921890878823637 ], [ 77.245280059614288, 9.922993722123818 ], [ 77.244465225794471, 9.923812603727237 ], [ 77.244483699484533, 9.926523893302369 ], [ 77.245856551818235, 9.927328117155989 ] ], [ [ 77.236731083943667, 9.912476313417505 ], [ 77.23782488794231, 9.912469019657674 ], [ 77.238637880138796, 9.911379025969429 ], [ 77.238894770466686, 9.908937029368136 ], [ 77.238067071222147, 9.907857979022079 ], [ 77.236699835418463, 9.907867092455845 ], [ 77.235613393458607, 9.908958902715771 ], [ 77.235628091259287, 9.911127949519283 ], [ 77.236731083943667, 9.912476313417505 ] ], [ [ 77.214287897295804, 9.909642568637835 ], [ 77.216748971697243, 9.909626321815228 ], [ 77.217292232460395, 9.909080440454604 ], [ 77.2172794798159, 9.907182500523357 ], [ 77.216725294724867, 9.906101574857511 ], [ 77.213974430104543, 9.903679404796753 ], [ 77.211779578477135, 9.902609279187361 ], [ 77.209852742582044, 9.900723929769045 ], [ 77.208746263954794, 9.898833172072957 ], [ 77.206279823731364, 9.898035933426854 ], [ 77.204094072605656, 9.89832142795421 ], [ 77.203550799072062, 9.898867289158471 ], [ 77.203836909502698, 9.900763453703741 ], [ 77.205486648064849, 9.90210836788521 ], [ 77.207130961940734, 9.902639862266344 ], [ 77.208507272125104, 9.903986553758596 ], [ 77.210177016554695, 9.908313928798412 ], [ 77.214287897295804, 9.909642568637835 ] ], [ [ 77.28946664829968, 9.906426797726418 ], [ 77.291105381765533, 9.906144484295639 ], [ 77.291914392812288, 9.904512163001749 ], [ 77.292165239331496, 9.90125685260681 ], [ 77.2918842814844, 9.900174236922616 ], [ 77.29105834759099, 9.8993664710685 ], [ 77.289964627418797, 9.899373928519477 ], [ 77.288878422410562, 9.900465866396729 ], [ 77.288073157651965, 9.902640424093114 ], [ 77.288088190383121, 9.904809392772361 ], [ 77.288642579750402, 9.905890149330636 ], [ 77.28946664829968, 9.906426797726418 ] ], [ [ 77.244567112447697, 9.898595761377774 ], [ 77.245387426627673, 9.898590279846783 ], [ 77.246202209337142, 9.897771409109936 ], [ 77.246749083530162, 9.897767752619112 ], [ 77.246745395570429, 9.897225494661859 ], [ 77.247292268655471, 9.897221837486953 ], [ 77.248648378428172, 9.895585918824128 ], [ 77.250555034742831, 9.894488592869225 ], [ 77.251367946958524, 9.893398586297819 ], [ 77.251358712672911, 9.892042945337487 ], [ 77.250261294939449, 9.891508011409565 ], [ 77.246980116668496, 9.891529957570727 ], [ 77.243977885173891, 9.892363435565363 ], [ 77.243163106074491, 9.893182299419154 ], [ 77.24318151093378, 9.89589359635502 ], [ 77.244567112447697, 9.898595761377774 ] ], [ [ 77.274088788878075, 9.897041547796972 ], [ 77.276821230258278, 9.896751907646941 ], [ 77.278997451709557, 9.895110341014014 ], [ 77.279806514731305, 9.893478040555035 ], [ 77.279797163784522, 9.89212242639033 ], [ 77.278965669905588, 9.890501250212344 ], [ 77.277589205595319, 9.889154897571183 ], [ 77.27594306145626, 9.888352634436194 ], [ 77.266648482507904, 9.888686547602173 ], [ 77.266938639975407, 9.891124832327252 ], [ 77.268601537208141, 9.894367265794017 ], [ 77.27025143072278, 9.89571181113198 ], [ 77.274088788878075, 9.897041547796972 ] ], [ [ 77.195861853198409, 9.894036929753554 ], [ 77.197229069736977, 9.894027994939925 ], [ 77.197772349769906, 9.893482143282174 ], [ 77.197756124350278, 9.891041900248698 ], [ 77.196934000388069, 9.890776123199119 ], [ 77.195574000430739, 9.891869608030282 ], [ 77.195311364030829, 9.893498225048157 ], [ 77.195861853198409, 9.894036929753554 ] ], [ [ 77.22290514794004, 9.889791984900237 ], [ 77.224270497801299, 9.889511810694076 ], [ 77.224813717688065, 9.88896592649451 ], [ 77.225078029167349, 9.887608451577602 ], [ 77.22478271078235, 9.884356661523313 ], [ 77.223404626471435, 9.882738898369562 ], [ 77.221220833469559, 9.883295613260197 ], [ 77.220679433650417, 9.884112625119007 ], [ 77.219044305335359, 9.884936852889508 ], [ 77.219047943234386, 9.88547912152905 ], [ 77.218501078988325, 9.88548272851763 ], [ 77.218233102014793, 9.886297935057099 ], [ 77.218238557714059, 9.887111338392794 ], [ 77.219341389929355, 9.888459794329371 ], [ 77.220161693131374, 9.888454379852728 ], [ 77.220438768925732, 9.88899484259653 ], [ 77.22290514794004, 9.889791984900237 ] ], [ [ 77.236573159830456, 9.889159064008641 ], [ 77.23876244871424, 9.889415638518198 ], [ 77.239573561198895, 9.888054523886403 ], [ 77.239560708347568, 9.88615661049154 ], [ 77.239002838666849, 9.884533467353632 ], [ 77.238177052485923, 9.883725533249871 ], [ 77.237083343876677, 9.883732807227089 ], [ 77.235461103080354, 9.886455024368923 ], [ 77.236022628937107, 9.888620438581226 ], [ 77.236569491822735, 9.888616801980817 ], [ 77.236573159830456, 9.889159064008641 ] ], [ [ 77.25484861229819, 9.8825296546754 ], [ 77.257035993938203, 9.882514989496952 ], [ 77.258393853008343, 9.881150181314887 ], [ 77.258375351558001, 9.878438910483773 ], [ 77.257821116406745, 9.877358069912129 ], [ 77.256446633337617, 9.876282725789347 ], [ 77.252894046902512, 9.876577656580505 ], [ 77.251259067035619, 9.877402015477429 ], [ 77.250446181873784, 9.878492014104308 ], [ 77.25045539952265, 9.879847657006902 ], [ 77.25127935265489, 9.880384428226874 ], [ 77.251283041640008, 9.880926685029348 ], [ 77.25484861229819, 9.8825296546754 ] ], [ [ 77.284364873614379, 9.88043262241677 ], [ 77.28599974764802, 9.879608117786683 ], [ 77.285992257197407, 9.878523630276224 ], [ 77.284619574203845, 9.8777195450905 ], [ 77.282984703455071, 9.878544041768786 ], [ 77.283267469724251, 9.879897799258707 ], [ 77.284364873614379, 9.88043262241677 ] ], [ [ 77.205586459477416, 9.876077447197927 ], [ 77.207500445828146, 9.876064904121806 ], [ 77.207770256332211, 9.875520838275161 ], [ 77.209137385381823, 9.875511871680535 ], [ 77.209407192653217, 9.874967805188184 ], [ 77.210499082951642, 9.874689491378641 ], [ 77.211585538448617, 9.873597766800453 ], [ 77.211574675394928, 9.871970951432862 ], [ 77.2110278306791, 9.871974541417719 ], [ 77.209921478814167, 9.870083765144026 ], [ 77.209374636599293, 9.870087351767701 ], [ 77.207160175307962, 9.866034637706134 ], [ 77.206613338749335, 9.866038218395806 ], [ 77.206061087998066, 9.865228387132444 ], [ 77.20387374420612, 9.865242696291114 ], [ 77.203603931250854, 9.865786758891343 ], [ 77.203057093785802, 9.865790333724897 ], [ 77.202519265689887, 9.867149595971199 ], [ 77.202537288742249, 9.869860972216919 ], [ 77.203658035003983, 9.873920880918964 ], [ 77.204489141300101, 9.875542335499112 ], [ 77.205586459477416, 9.876077447197927 ] ], [ [ 77.235380518257827, 9.874525244410258 ], [ 77.238661554153097, 9.874503448542097 ], [ 77.242748149257508, 9.87230711795436 ], [ 77.246007087169673, 9.869031700648611 ], [ 77.246003411344134, 9.868489441491322 ], [ 77.247363120195544, 9.867395808819687 ], [ 77.248443890835418, 9.865490609281558 ], [ 77.248990710861349, 9.865486960955792 ], [ 77.248974155423014, 9.863046799107543 ], [ 77.247599762872525, 9.861971398442199 ], [ 77.244592279099933, 9.86199143380467 ], [ 77.242955499077084, 9.862544611403962 ], [ 77.240775558256246, 9.863643678537226 ], [ 77.239962656466247, 9.864733652822055 ], [ 77.239415834284415, 9.86473728623346 ], [ 77.237790011539005, 9.866917230423967 ], [ 77.237793673334096, 9.86745949269417 ], [ 77.23616416884137, 9.869097171226322 ], [ 77.232620727941054, 9.870747535172487 ], [ 77.231800475580343, 9.870752970377145 ], [ 77.230985700984874, 9.871571800597977 ], [ 77.230994832436551, 9.872927462186649 ], [ 77.231545325128863, 9.87346610385579 ], [ 77.235380518257827, 9.874525244410258 ] ], [ [ 77.282640274775872, 9.868243237255314 ], [ 77.284280708840626, 9.868232120198492 ], [ 77.285643995390231, 9.867680605651445 ], [ 77.286458597409109, 9.866861675190099 ], [ 77.286445504309597, 9.864963821176962 ], [ 77.280700310870515, 9.86446047389884 ], [ 77.27932770195163, 9.863656350499038 ], [ 77.278462784799132, 9.857154928973914 ], [ 77.278432996109402, 9.852816949835528 ], [ 77.279242006440597, 9.851184669565964 ], [ 77.279786929071932, 9.850909853100424 ], [ 77.280041700599583, 9.84819677154783 ], [ 77.278940697735337, 9.847119660312242 ], [ 77.27757375133703, 9.847128883857938 ], [ 77.276757300756316, 9.847676663610535 ], [ 77.276219814077493, 9.849035971489265 ], [ 77.276242123882696, 9.852289461711639 ], [ 77.274899316825213, 9.855823296129811 ], [ 77.274945809998968, 9.862601403527117 ], [ 77.276050588909953, 9.864220766278184 ], [ 77.27741946990345, 9.864482656805636 ], [ 77.277425058491417, 9.865296028000985 ], [ 77.279067348269066, 9.865556063011008 ], [ 77.280172157406568, 9.86717540523833 ], [ 77.282640274775872, 9.868243237255314 ] ], [ [ 77.291068979358485, 9.86140768492748 ], [ 77.292160699065391, 9.861129131207948 ], [ 77.292430348482199, 9.86058503063569 ], [ 77.292145707330974, 9.858960163123461 ], [ 77.291325517996441, 9.858965736596918 ], [ 77.290510945655726, 9.85978467208392 ], [ 77.290518436386122, 9.8608691573569 ], [ 77.291068979358485, 9.86140768492748 ] ], [ [ 77.230083351959948, 9.859376265859972 ], [ 77.231446745306243, 9.858824958480705 ], [ 77.231432153946329, 9.856655898745048 ], [ 77.230338529602577, 9.856663131153489 ], [ 77.229521955194201, 9.85721081880927 ], [ 77.229259481503206, 9.858839423002683 ], [ 77.230083351959948, 9.859376265859972 ] ], [ [ 77.202163016822183, 9.854679043808636 ], [ 77.20489711215653, 9.85466118795734 ], [ 77.206256947184599, 9.853567703055333 ], [ 77.206512329973165, 9.850854543812758 ], [ 77.205409699951602, 9.849506004360792 ], [ 77.203767469654551, 9.849245579763833 ], [ 77.202405839967923, 9.850067914872982 ], [ 77.20159820987061, 9.851971231960913 ], [ 77.201610800407863, 9.853869198265093 ], [ 77.202163016822183, 9.854679043808636 ] ], [ [ 77.242876675708914, 9.850886006429558 ], [ 77.24451706925035, 9.850875101876769 ], [ 77.245333597473206, 9.850327386627315 ], [ 77.245873056874473, 9.849239229259563 ], [ 77.245862053244338, 9.84761244967901 ], [ 77.245309761722879, 9.846802696239898 ], [ 77.243120766551499, 9.846546102589999 ], [ 77.241761109895094, 9.847639703541235 ], [ 77.24177575508962, 9.849808749062719 ], [ 77.242876675708914, 9.850886006429558 ] ], [ [ 77.302420015392272, 9.842351122967136 ], [ 77.30378691827616, 9.842341803360847 ], [ 77.3037737594357, 9.840443969750403 ], [ 77.302947985857884, 9.839636203274456 ], [ 77.301579215614765, 9.839374397414915 ], [ 77.301034335880445, 9.839649240880108 ], [ 77.301043722837036, 9.841004839025652 ], [ 77.302420015392272, 9.842351122967136 ] ], [ [ 77.221185519514933, 9.837200977647619 ], [ 77.225286391885248, 9.837174001904165 ], [ 77.228557993466751, 9.835796718850393 ], [ 77.228825930071537, 9.834981516380125 ], [ 77.229642459518288, 9.834433841543174 ], [ 77.230178325406541, 9.832803436460845 ], [ 77.230994847342544, 9.832255759962456 ], [ 77.230991209949025, 9.83171349403883 ], [ 77.232077473993101, 9.830621746544976 ], [ 77.232624242777021, 9.830618137426351 ], [ 77.233980239484808, 9.828982316122907 ], [ 77.2342390575987, 9.82681145104968 ], [ 77.233690475778701, 9.826543928848096 ], [ 77.233686836149801, 9.826001663742831 ], [ 77.231765900013201, 9.82492976024988 ], [ 77.228758718714232, 9.8249495805003 ], [ 77.227944022143845, 9.825768382294301 ], [ 77.227397259575199, 9.825771982091723 ], [ 77.225498094939141, 9.827953646943163 ], [ 77.221140243756608, 9.830422608838472 ], [ 77.21897124007711, 9.833148317416281 ], [ 77.21926453494855, 9.836129009106942 ], [ 77.221185519514933, 9.837200977647619 ] ], [ [ 77.256447113424315, 9.836153978994776 ], [ 77.25781403478085, 9.836144851015279 ], [ 77.258900202396831, 9.835053033885615 ], [ 77.259160691006002, 9.833153313274959 ], [ 77.258881784849976, 9.832341756623032 ], [ 77.258057960642176, 9.831804978748966 ], [ 77.256144295656767, 9.831817752176406 ], [ 77.254784743107948, 9.832911383511295 ], [ 77.254795773616678, 9.834538154483878 ], [ 77.256447113424315, 9.836153978994776 ] ], [ [ 77.289693260085116, 9.820475728670734 ], [ 77.293793731896486, 9.820447968902245 ], [ 77.295151210114312, 9.819083099222125 ], [ 77.295383475010595, 9.813116581922714 ], [ 77.295104515332838, 9.81230507041888 ], [ 77.294280709945539, 9.811768382206562 ], [ 77.291007875158257, 9.812875067240027 ], [ 77.289650395549529, 9.814239918859963 ], [ 77.289116714866367, 9.816141470174907 ], [ 77.28857371645968, 9.816687409967406 ], [ 77.288594208901429, 9.819669755923877 ], [ 77.289693260085116, 9.820475728670734 ] ], [ [ 77.246190947203615, 9.815344327760068 ], [ 77.25165832171362, 9.815308024731419 ], [ 77.253019661853457, 9.814485547829625 ], [ 77.253008662946186, 9.81285877293895 ], [ 77.251080450316906, 9.810702457187089 ], [ 77.248343144901, 9.810178346470511 ], [ 77.246435072943854, 9.811004428548269 ], [ 77.245350742609673, 9.812367329270916 ], [ 77.245367184796564, 9.814807504505568 ], [ 77.246190947203615, 9.815344327760068 ] ] ] } }
]
}
