{
"type": "FeatureCollection",
"name": "inventory",
"crs": { "type": "name", "properties": { "name": "urn:ogc:def:crs:OGC:1.3:CRS84" } },
"features": [
{ "type": "Feature", "properties": { "date": "2018-08-09", "source": "SYNTHETIC (stand-in for GSI inventory)" }, "geometry": { "type": "Point", "coordinates": [ 76.457667105742033, 10.528571788298665 ] } },
{ "type": "Feature", "properties": { "date": "2018-08-09", "source": "SYNTHETIC (stand-in for GSI inventory)" }, "geometry": { "type": "Point", "coordinates": [ 76.794047498024511, 8.382588675226621 ] } },
{ "type": "Feature", "properties": { "date": "2018-08-09", "source": "SYNTHETIC (stand-in for GSI inventory)" }, "geometry": { "type": "Point", "coordinates": [ 76.533471882115393, 9.264475261601635 ] } },
{ "type": "Feature", "properties": { "date": "2018-08-09", "source": "SYNTHETIC (stand-in for GSI inventory)" }, "geometry": { "type": "Point", "coordinates": [ 77.29488818182115, 8.294851633404271 ] } },
{ "type": "Feature", "properties": { "date": "2018-08-09", "source": "SYNTHETIC (stand-in for GSI inventory)" }, "geometry": { "type": "Point", "coordinates": [ 76.425082210311828, 9.858449361808077 ] } },
{ "type": "Feature", "properties": { "date": "2018-08-09", "source": "SYNTHETIC (stand-in for GSI inventory)" }, "geometry": { "type": "Point", "coordinates": [ 76.476480987737332, 9.540315722734853 ] } },
{ "type": "Feature", "properties": { "date": "2018-08-09", "source": "SYNTHETIC (stand-in for GSI inventory)" }, "geometry": { "type": "Point", "coordinates": [ 76.73152223091806, 8.591723408334884 ] } },
{ "type": "Feature", "properties": { "date": "2018-08-09", "source": "SYNTHETIC (stand-in for GSI inventory)" }, "geometry": { "type": "Point", "coordinates": [ 76.594098134711643, 8.959053587672976 ] } },
{ "type": "Feature", "properties": { "date": "2018-08-09", "source": "SYNTHETIC (stand-in for GSI inventory)" }, "geometry": { "type": "Point", "coordinates": [ 76.468500532534279, 9.068894165813004 ] } },
{ "type": "Feature", "properties": { "date": "2018-08-09", "source": "SYNTHETIC (stand-in for GSI inventory)" }, "geometry": { "type": "Point", "coordinates": [ 77.286604312397856, 8.179658432989942 ] } },
{ "type": "Feature", "properties": { "date": "2018-08-09", "source": "SYNTHETIC (stand-in for GSI inventory)" }, "geometry": { "type": "Point", "coordinates": [ 75.208573119557883, 12.354790446519182 ] } },
{ "type": "Feature", "properties": { "date": "2018-08-09", "source": "SYNTHETIC (stand-in for GSI inventory)" }, "geometry": { "type": "Point", "coordinates": [ 76.778188086529539, 9.755609377240262 ] } },
{ "type": "Feature", "properties": { "date": "2018-08-09", "source": "SYNTHETIC (stand-in for GSI inventory)" }, "geometry": { "type": "Point", "coordinates": [ 76.374431194124369, 9.16257896014398 ] } },
{ "type": "Feature", "properties": { "date": "2018-08-09", "source": "SYNTHETIC (stand-in for GSI inventory)" }, "geometry": { "type": "Point", "coordinates": [ 76.206844319682816, 10.736877003894113 ] } },
{ "type": "Feature", "properties": { "date": "2018-08-09", "source": "SYNTHETIC (stand-in for GSI inventory)" }, "geometry": { "type": "Point", "coordinates": [ 77.200168940675709, 9.697017704209896 ] } },
{ "type": "Feature", "properties": { "date": "2018-08-09", "source": "SYNTHETIC (stand-in for GSI inventory)" }, "geometry": { "type": "Point", "coordinates": [ 76.485012632460808, 9.864429717148775 ] } },
{ "type": "Feature", "properties": { "date": "2018-08-09", "source": "SYNTHETIC (stand-in for GSI inventory)" }, "geometry": { "type": "Point", "coordinates": [ 77.239723357014569, 9.43564691633266 ] } },
{ "type": "Feature", "properties": { "date": "2018-08-09", "source": "SYNTHETIC (stand-in for GSI inventory)" }, "geometry": { "type": "Point", "coordinates": [ 76.591748897718304, 10.102090077481991 ] } },
{ "type": "Feature", "properties": { "date": "2018-08-09", "source": "SYNTHETIC (stand-in for GSI inventory)" }, "geometry": { "type": "Point", "coordinates": [ 76.571098083703973, 9.963314170232023 ] } },
{ "type": "Feature", "properties": { "date": "2018-08-09", "source": "SYNTHETIC (stand-in for GSI inventory)" }, "geometry": { "type": "Point", "coordinates": [ 77.066577408722623, 8.209590523435184 ] } },
{ "type": "Feature", "properties": { "date": "2018-08-09", "source": "SYNTHETIC (stand-in for GSI inventory)" }, "geometry": { "type": "Point", "coordinates": [ 77.150396714393253, 8.649813676105909 ] } },
{ "type": "Feature", "properties": { "date": "2018-08-09", "source": "SYNTHETIC (stand-in for GSI inventory)" }, "geometry": { "type": "Point", "coordinates": [ 76.540601382988299, 9.69980420505847 ] } },
{ "type": "Feature", "properties": { "date": "2018-08-09", "source": "SYNTHETIC (stand-in for GSI inventory)" }, "geometry": { "type": "Point", "coordinates": [ 76.237968100076046, 11.356584337685442 ] } },
{ "type": "Feature", "properties": { "date": "2018-08-09", "source": "SYNTHETIC (stand-in for GSI inventory)" }, "geometry": { "type": "Point", "coordinates": [ 76.542502940010507, 9.756757784953271 ] } },
{ "type": "Feature", "properties": { "date": "2018-08-09", "source": "SYNTHETIC (stand-in for GSI inventory)" }, "geometry": { "type": "Point", "coordinates": [ 76.297465903629899, 10.166314567019452 ] } },
{ "type": "Feature", "properties": { "date": "2018-08-09", "source": "SYNTHETIC (stand-in for GSI inventory)" }, "geometry": { "type": "Point", "coordinates": [ 76.942647236190311, 10.330717070326511 ] } },
{ "type": "Feature", "properties": { "date": "2018-08-09", "source": "SYNTHETIC (stand-in for GSI inventory)" }, "geometry": { "type": "Point", "coordinates": [ 76.779322578456544, 9.555173028428767 ] } },
{ "type": "Feature", "properties": { "date": "2018-08-09", "source": "SYNTHETIC (stand-in for GSI inventory)" }, "geometry": { "type": "Point", "coordinates": [ 76.720128410546948, 10.606178402738017 ] } },
{ "type": "Feature", "properties": { "date": "2018-08-09", "source": "SYNTHETIC (stand-in for GSI inventory)" }, "geometry": { "type": "Point", "coordinates": [ 76.936440890733067, 8.205898130366597 ] } },
{ "type": "Feature", "properties": { "date": "2018-08-09", "source": "SYNTHETIC (stand-in for GSI inventory)" }, "geometry": { "type": "Point", "coordinates": [ 76.368663326276277, 9.77486152088821 ] } },
{ "type": "Feature", "properties": { "date": "2018-08-09", "source": "SYNTHETIC (stand-in for GSI inventory)" }, "geometry": { "type": "Point", "coordinates": [ 75.192439585995018, 12.555015263978337 ] } },
{ "type": "Feature", "properties": { "date": "2018-08-09", "source": "SYNTHETIC (stand-in for GSI inventory)" }, "geometry": { "type": "Point", "coordinates": [ 77.358571785206067, 8.292310677972498 ] } },
{ "type": "Feature", "properties": { "date": "2018-08-09", "source": "SYNTHETIC (stand-in for GSI inventory)" }, "geometry": { "type": "Point", "coordinates": [ 76.765885000658656, 8.418790259124547 ] } },
{ "type": "Feature", "properties": { "date": "2018-08-09", "source": "SYNTHETIC (stand-in for GSI inventory)" }, "geometry": { "type": "Point", "coordinates": [ 77.042941945702225, 9.409455335470916 ] } },
{ "type": "Feature", "properties": { "date": "2018-08-09", "source": "SYNTHETIC (stand-in for GSI inventory)" }, "geometry": { "type": "Point", "coordinates": [ 77.330266118226589, 8.384937836810829 ] } },
{ "type": "Feature", "properties": { "date": "2018-08-09", "source": "SYNTHETIC (stand-in for GSI inventory)" }, "geometry": { "type": "Point", "coordinates": [ 77.340296251433941, 8.377557567607424 ] } },
{ "type": "Feature", "properties": { "date": "2018-08-09", "source": "SYNTHETIC (stand-in for GSI inventory)" }, "geometry": { "type": "Point", "coordinates": [ 77.251204887452687, 8.320318728099098 ] } },
{ "type": "Feature", "properties": { "date": "2018-08-09", "source": "SYNTHETIC (stand-in for GSI inventory)" }, "geometry": { "type": "Point", "coordinates": [ 76.338353107860257, 10.947645467247819 ] } },
{ "type": "Feature", "properties": { "date": "2018-08-09", "source": "SYNTHETIC (stand-in for GSI inventory)" }, "geometry": { "type": "Point", "coordinates": [ 76.80592376329588, 9.573478538827061 ] } },
{ "type": "Feature", "properties": { "date": "2018-08-09", "source": "SYNTHETIC (stand-in for GSI inventory)" }, "geometry": { "type": "Point", "coordinates": [ 77.17415879524556, 8.120891774779798 ] } },
{ "type": "Feature", "properties": { "date": "2018-08-09", "source": "SYNTHETIC (stand-in for GSI inventory)" }, "geometry": { "type": "Point", "coordinates": [ 76.421234472990747, 9.124691601564464 ] } },
{ "type": "Feature", "properties": { "date": "2018-08-09", "source": "SYNTHETIC (stand-in for GSI inventory)" }, "geometry": { "type": "Point", "coordinates": [ 76.065012867839087, 10.967710948876945 ] } },
{ "type": "Feature", "properties": { "date": "2018-08-09", "source": "SYNTHETIC (stand-in for GSI inventory)" }, "geometry": { "type": "Point", "coordinates": [ 77.257498385048194, 8.420340550544605 ] } },
{ "type": "Feature", "properties": { "date": "2018-08-09", "source": "SYNTHETIC (stand-in for GSI inventory)" }, "geometry": { "type": "Point", "coordinates": [ 75.796074330493141, 11.802745392907676 ] } },
{ "type": "Feature", "properties": { "date": "2018-08-09", "source": "SYNTHETIC (stand-in for GSI inventory)" }, "geometry": { "type": "Point", "coordinates": [ 76.238094810469406, 9.593331522833703 ] } },
{ "type": "Feature", "properties": { "date": "2018-08-09", "source": "SYNTHETIC (stand-in for GSI inventory)" }, "geometry": { "type": "Point", "coordinates": [ 76.686185587058446, 8.631255095782569 ] } },
{ "type": "Feature", "properties": { "date": "2018-08-09", "source": "SYNTHETIC (stand-in for GSI inventory)" }, "geometry": { "type": "Point", "coordinates": [ 76.304353398796565, 11.142824122979526 ] } },
{ "type": "Feature", "properties": { "date": "2018-08-09", "source": "SYNTHETIC (stand-in for GSI inventory)" }, "geometry": { "type": "Point", "coordinates": [ 76.300282942088998, 10.118017529011501 ] } },
{ "type": "Feature", "properties": { "date": "2018-08-09", "source": "SYNTHETIC (stand-in for GSI inventory)" }, "geometry": { "type": "Point", "coordinates": [ 77.16459120413964, 8.461268554678568 ] } },
{ "type": "Feature", "properties": { "date": "2018-08-09", "source": "SYNTHETIC (stand-in for GSI inventory)" }, "geometry": { "type": "Point", "coordinates": [ 76.422087285666279, 10.420233196695934 ] } },
{ "type": "Feature", "properties": { "date": "2018-08-09", "source": "SYNTHETIC (stand-in for GSI inventory)" }, "geometry": { "type": "Point", "coordinates": [ 75.323979466187737, 12.177794963331301 ] } },
{ "type": "Feature", "properties": { "date": "2018-08-09", "source": "SYNTHETIC (stand-in for GSI inventory)" }, "geometry": { "type": "Point", "coordinates": [ 76.392914219788338, 10.514486697152645 ] } },
{ "type": "Feature", "properties": { "date": "2018-08-09", "source": "SYNTHETIC (stand-in for GSI inventory)" }, "geometry": { "type": "Point", "coordinates": [ 76.533338574421265, 9.421261176812926 ] } },
{ "type": "Feature", "properties": { "date": "2018-08-09", "source": "SYNTHETIC (stand-in for GSI inventory)" }, "geometry": { "type": "Point", "coordinates": [ 76.385885183770768, 11.016058705893016 ] } },
{ "type": "Feature", "properties": { "date": "2018-08-09", "source": "SYNTHETIC (stand-in for GSI inventory)" }, "geometry": { "type": "Point", "coordinates": [ 76.160522252997424, 10.602230254616783 ] } },
{ "type": "Feature", "properties": { "date": "2018-08-09", "source": "SYNTHETIC (stand-in for GSI inventory)" }, "geometry": { "type": "Point", "coordinates": [ 76.584722946090906, 10.395871730309786 ] } },
{ "type": "Feature", "properties": { "date": "2018-08-09", "source": "SYNTHETIC (stand-in for GSI inventory)" }, "geometry": { "type": "Point", "coordinates": [ 76.743747350320703, 8.463101195405391 ] } },
{ "type": "Feature", "properties": { "date": "2018-08-09", "source": "SYNTHETIC (stand-in for GSI inventory)" }, "geometry": { "type": "Point", "coordinates": [ 76.313406082488797, 10.046079257130263 ] } },
{ "type": "Feature", "properties": { "date": "2018-08-09", "source": "SYNTHETIC (stand-in for GSI inventory)" }, "geometry": { "type": "Point", "coordinates": [ 76.656061384095054, 10.364049205476553 ] } },
{ "type": "Feature", "properties": { "date": "2018-08-09", "source": "SYNTHETIC (stand-in for GSI inventory)" }, "geometry": { "type": "Point", "coordinates": [ 76.825706010317049, 9.795768413452841 ] } },
{ "type": "Feature", "properties": { "date": "2018-08-09", "source": "SYNTHETIC (stand-in for GSI inventory)" }, "geometry": { "type": "Point", "coordinates": [ 77.064076576633141, 8.4081163702125 ] } },
{ "type": "Feature", "properties": { "date": "2018-08-09", "source": "SYNTHETIC (stand-in for GSI inventory)" }, "geometry": { "type": "Point", "coordinates": [ 76.805118403806475, 8.709641120792842 ] } },
{ "type": "Feature", "properties": { "date": "2018-08-09", "source": "SYNTHETIC (stand-in for GSI inventory)" }, "geometry": { "type": "Point", "coordinates": [ 76.125044545012742, 10.722806091225593 ] } },
{ "type": "Feature", "properties": { "date": "2018-08-09", "source": "SYNTHETIC (stand-in for GSI inventory)" }, "geometry": { "type": "Point", "coordinates": [ 77.099002854070022, 9.73371779406053 ] } },
{ "type": "Feature", "properties": { "date": "2018-08-09", "source": "SYNTHETIC (stand-in for GSI inventory)" }, "geometry": { "type": "Point", "coordinates": [ 76.454180453726423, 11.058052233002071 ] } },
{ "type": "Feature", "properties": { "date": "2018-08-09", "source": "SYNTHETIC (stand-in for GSI inventory)" }, "geometry": { "type": "Point", "coordinates": [ 77.169858522517984, 9.869395138615726 ] } },
{ "type": "Feature", "properties": { "date": "2018-08-09", "source": "SYNTHETIC (stand-in for GSI inventory)" }, "geometry": { "type": "Point", "coordinates": [ 76.659180208867653, 8.750179450299424 ] } },
{ "type": "Feature", "properties": { "date": "2018-08-09", "source": "SYNTHETIC (stand-in for GSI inventory)" }, "geometry": { "type": "Point", "coordinates": [ 76.469963452574447, 9.986017403402005 ] } },
{ "type": "Feature", "properties": { "date": "2018-08-09", "source": "SYNTHETIC (stand-in for GSI inventory)" }, "geometry": { "type": "Point", "coordinates": [ 77.081810433920481, 9.869679510302502 ] } },
{ "type": "Feature", "properties": { "date": "2018-08-09", "source": "SYNTHETIC (stand-in for GSI inventory)" }, "geometry": { "type": "Point", "coordinates": [ 76.365016934461977, 11.134145764773303 ] } },
{ "type": "Feature", "properties": { "date": "2018-08-09", "source": "SYNTHETIC (stand-in for GSI inventory)" }, "geometry": { "type": "Point", "coordinates": [ 77.041146974754056, 8.854618868358827 ] } },
{ "type": "Feature", "properties": { "date": "2018-08-09", "source": "SYNTHETIC (stand-in for GSI inventory)" }, "geometry": { "type": "Point", "coordinates": [ 77.099827468447941, 8.864870111025004 ] } },
{ "type": "Feature", "properties": { "date": "2018-08-09", "source": "SYNTHETIC (stand-in for GSI inventory)" }, "geometry": { "type": "Point", "coordinates": [ 77.309812358377926, 8.286630908199211 ] } },
{ "type": "Feature", "properties": { "date": "2018-08-09", "source": "SYNTHETIC (stand-in for GSI inventory)" }, "geometry": { "type": "Point", "coordinates": [ 76.539682905746716, 8.929174245723253 ] } },
{ "type": "Feature", "properties": { "date": "2018-08-09", "source": "SYNTHETIC (stand-in for GSI inventory)" }, "geometry": { "type": "Point", "coordinates": [ 76.292543778172259, 9.96152447616943 ] } },
{ "type": "Feature", "properties": { "date": "2018-08-09", "source": "SYNTHETIC (stand-in for GSI inventory)" }, "geometry": { "type": "Point", "coordinates": [ 76.249139384010206, 9.69773529236114 ] } },
{ "type": "Feature", "properties": { "date": "2018-08-09", "source": "SYNTHETIC (stand-in for GSI inventory)" }, "geometry": { "type": "Point", "coordinates": [ 76.521367647355788, 10.826089603164856 ] } },
{ "type": "Feature", "properties": { "date": "2018-08-09", "source": "SYNTHETIC (stand-in for GSI inventory)" }, "geometry": { "type": "Point", "coordinates": [ 77.268320562553484, 8.501353724743113 ] } },
{ "type": "Feature", "properties": { "date": "2018-08-09", "source": "SYNTHETIC (stand-in for GSI inventory)" }, "geometry": { "type": "Point", "coordinates": [ 76.819534331392774, 9.355892660557258 ] } },
{ "type": "Feature", "properties": { "date": "2018-08-09", "source": "SYNTHETIC (stand-in for GSI inventory)" }, "geometry": { "type": "Point", "coordinates": [ 76.609755372574256, 10.834320181929467 ] } },
{ "type": "Feature", "properties": { "date": "2018-08-09", "source": "SYNTHETIC (stand-in for GSI inventory)" }, "geometry": { "type": "Point", "coordinates": [ 76.612916710928772, 9.381033045520144 ] } },
{ "type": "Feature", "properties": { "date": "2018-08-09", "source": "SYNTHETIC (stand-in for GSI inventory)" }, "geometry": { "type": "Point", "coordinates": [ 76.598267707949375, 8.787874739042062 ] } },
{ "type": "Feature", "properties": { "date": "2018-08-09", "source": "SYNTHETIC (stand-in for GSI inventory)" }, "geometry": { "type": "Point", "coordinates": [ 76.371112172613678, 9.970162945763061 ] } },
{ "type": "Feature", "properties": { "date": "2018-08-09", "source": "SYNTHETIC (stand-in for GSI inventory)" }, "geometry": { "type": "Point", "coordinates": [ 76.862637642358479, 8.486962754517586 ] } },
{ "type": "Feature", "properties": { "date": "2018-08-09", "source": "SYNTHETIC (stand-in for GSI inventory)" }, "geometry": { "type": "Point", "coordinates": [ 75.212892246466652, 12.235417694544072 ] } },
{ "type": "Feature", "properties": { "date": "2018-08-09", "source": "SYNTHETIC (stand-in for GSI inventory)" }, "geometry": { "type": "Point", "coordinates": [ 76.686099922212705, 10.448513731965901 ] } },
{ "type": "Feature", "properties": { "date": "2018-08-09", "source": "SYNTHETIC (stand-in for GSI inventory)" }, "geometry": { "type": "Point", "coordinates": [ 76.454190420636181, 9.568078175874339 ] } },
{ "type": "Feature", "properties": { "date": "2018-08-09", "source": "SYNTHETIC (stand-in for GSI inventory)" }, "geometry": { "type": "Point", "coordinates": [ 76.781666921530501, 10.533966664978283 ] } },
{ "type": "Feature", "properties": { "date": "2018-08-09", "source": "SYNTHETIC (stand-in for GSI inventory)" }, "geometry": { "type": "Point", "coordinates": [ 76.644095930483957, 10.690934902349605 ] } },
{ "type": "Feature", "properties": { "date": "2018-08-09", "source": "SYNTHETIC (stand-in for GSI inventory)" }, "geometry": { "type": "Point", "coordinates": [ 75.929229474022591, 11.264940860558287 ] } },
{ "type": "Feature", "properties": { "date": "2018-08-09", "source": "SYNTHETIC (stand-in for GSI inventory)" }, "geometry": { "type": "Point", "coordinates": [ 76.696008849171164, 10.252911965485071 ] } },
{ "type": "Feature", "properties": { "date": "2018-08-09", "source": "SYNTHETIC (stand-in for GSI inventory)" }, "geometry": { "type": "Point", "coordinates": [ 76.738214241967356, 8.565111881588026 ] } },
{ "type": "Feature", "properties": { "date": "2018-08-09", "source": "SYNTHETIC (stand-in for GSI inventory)" }, "geometry": { "type": "Point", "coordinates": [ 76.82592868896279, 8.728798671645606 ] } },
{ "type": "Feature", "properties": { "date": "2018-08-09", "source": "SYNTHETIC (stand-in for GSI inventory)" }, "geometry": { "type": "Point", "coordinates": [ 75.927207664364985, 11.320017400181781 ] } },
{ "type": "Feature", "properties": { "date": "2018-08-09", "source": "SYNTHETIC (stand-in for GSI inventory)" }, "geometry": { "type": "Point", "coordinates": [ 77.41919438328776, 8.234738998660626 ] } },
{ "type": "Feature", "properties": { "date": "2018-08-09", "source": "SYNTHETIC (stand-in for GSI inventory)" }, "geometry": { "type": "Point", "coordinates": [ 77.254338144763139, 8.485707835944442 ] } },
{ "type": "Feature", "properties": { "date": "2018-08-09", "source": "SYNTHETIC (stand-in for GSI inventory)" }, "geometry": { "type": "Point", "coordinates": [ 76.34681872551468, 9.151831590997654 ] } },
{ "type": "Feature", "properties": { "date": "2018-08-09", "source": "SYNTHETIC (stand-in for GSI inventory)" }, "geometry": { "type": "Point", "coordinates": [ 76.521649924567043, 8.72254586950012 ] } }
]
}
