{
  "type": "FeatureCollection",
  "metadata": {
    "product": "Copernicus Global Flood Monitoring (GFM)",
    "sensor": "Sentinel-1 SAR",
    "observed_at": "2026-09-04T18:00:00Z",
    "note": "Pre-baked flood-extent observation for the demo region. The observation timestamp is the latest available satellite pass; this is NOT a real-time feed.",
    "region": "Periyar river floodplain, Ernakulam district, Kerala"
  },
  "features": [
    {
      "type": "Feature",
      "properties": {
        "name": "Aluva floodplain inundation",
        "observed_at": "2026-09-04T18:00:00Z",
        "confidence": "high"
      },
      "geometry": {
        "type": "Polygon",
        "coordinates": [[
          [76.3480, 10.1150],
          [76.3620, 10.1120],
          [76.3720, 10.1020],
          [76.3680, 10.0890],
          [76.3520, 10.0850],
          [76.3400, 10.0940],
          [76.3380, 10.1060],
          [76.3480, 10.1150]
        ]]
      }
    },
    {
      "type": "Feature",
      "properties": {
        "name": "Periyar south bank waterlogging, Paravur",
        "observed_at": "2026-09-04T18:00:00Z",
        "confidence": "medium"
      },
      "geometry": {
        "type": "Polygon",
        "coordinates": [[
          [76.2330, 10.1480],
          [76.2490, 10.1450],
          [76.2550, 10.1360],
          [76.2440, 10.1280],
          [76.2300, 10.1320],
          [76.2260, 10.1410],
          [76.2330, 10.1480]
        ]]
      }
    },
    {
      "type": "Feature",
      "properties": {
        "name": "Kalamassery low-lying inundation",
        "observed_at": "2026-09-04T18:00:00Z",
        "confidence": "medium"
      },
      "geometry": {
        "type": "Polygon",
        "coordinates": [[
          [76.3180, 10.0560],
          [76.3300, 10.0520],
          [76.3340, 10.0430],
          [76.3230, 10.0370],
          [76.3120, 10.0420],
          [76.3100, 10.0500],
          [76.3180, 10.0560]
        ]]
      }
    },
    {
      "type": "Feature",
      "properties": {
        "name": "Edappally canal overflow",
        "observed_at": "2026-09-04T18:00:00Z",
        "confidence": "low"
      },
      "geometry": {
        "type": "Polygon",
        "coordinates": [[
          [76.2980, 10.0200],
          [76.3070, 10.0160],
          [76.3090, 10.0080],
          [76.3000, 10.0040],
          [76.2920, 10.0090],
          [76.2910, 10.0160],
          [76.2980, 10.0200]
        ]]
      }
    }
  ]
}
