{
  "type": "FeatureCollection",
  "name": "Kerala",
  "crs": {
    "type": "name",
    "properties": {
      "name": "urn:ogc:def:crs:OGC:1.3:CRS84"
    }
  },
  "features": [
    {
      "type": "Feature",
      "properties": {
        "name": "Kerala",
        "source": "simplified prototype outline (replace with Survey of India / GADM / OSM official boundary)",
        "note": "Simplified coarse boundary for pipeline development; not survey-grade."
      },
      "geometry": {
        "type": "Polygon",
        "coordinates": [
          [
            [
              74.86,
              12.8
            ],
            [
              75.4,
              12.55
            ],
            [
              75.95,
              11.85
            ],
            [
              76.3,
              11.35
            ],
            [
              76.55,
              10.95
            ],
            [
              76.85,
              10.5
            ],
            [
              77.15,
              10.05
            ],
            [
              77.3,
              9.6
            ],
            [
              77.2,
              9.2
            ],
            [
              77.1,
              8.8
            ],
            [
              77.3,
              8.45
            ],
            [
              77.45,
              8.2
            ],
            [
              77.05,
              8.08
            ],
            [
              76.6,
              8.55
            ],
            [
              76.35,
              9.0
            ],
            [
              76.25,
              9.45
            ],
            [
              76.15,
              10.0
            ],
            [
              76.1,
              10.45
            ],
            [
              75.85,
              10.9
            ],
            [
              75.65,
              11.3
            ],
            [
              75.55,
              11.75
            ],
            [
              75.3,
              12.1
            ],
            [
              74.9,
              12.65
            ],
            [
              74.86,
              12.8
            ]
          ]
        ]
      }
    }
  ]
}